{
  "type": "FeatureCollection",
  "features": [
    {
      "id": "23",
      "type": "Feature",
      "properties": {
        "nombre": "Cienaguita",
        "area_ha": 0.0,
        "Shape_Leng": 2409.64170854,
        "Shape_Area": 374880.200579
      },
      "geometry": {
        "type": "Polygon",
        "coordinates": [
          [
            [
              -76.45190486746604,
              8.756608669519569
            ],
            [
              -76.45145776838238,
              8.756971254853877
            ],
            [
              -76.45101397678715,
              8.757692309961534
            ],
            [
              -76.45066054159709,
              8.758442415835635
            ],
            [
              -76.45093740547888,
              8.759156888953123
            ],
            [
              -76.45130600805298,
              8.76004977276622
            ],
            [
              -76.45043879582018,
              8.76044607255281
            ],
            [
              -76.44890849420966,
              8.76057955072707
            ],
            [
              -76.44791703319692,
              8.760528853046228
            ],
            [
              -76.44665642445578,
              8.76060010983147
            ],
            [
              -76.44566165606972,
              8.760190933283143
            ],
            [
              -76.44499031200495,
              8.759031922660963
            ],
            [
              -76.4447112562225,
              8.758078458572431
            ],
            [
              -76.44473522913081,
              8.757420984711066
            ],
            [
              -76.44487683536228,
              8.756493559972537
            ],
            [
              -76.4458311043796,
              8.75576785348865
            ],
            [
              -76.44675919706174,
              8.7554606369121
            ],
            [
              -76.44771979202456,
              8.755421998824632
            ],
            [
              -76.44834568112645,
              8.75490840998134
            ],
            [
              -76.4496401528355,
              8.755255097668723
            ],
            [
              -76.4507866947396,
              8.755842130794452
            ],
            [
              -76.4514778701813,
              8.755895568395486
            ],
            [
              -76.45190486746604,
              8.756608669519569
            ]
          ]
        ]
      }
    }
  ]
}
