{
  "type": "FeatureCollection",
  "features": [
    {
      "id": "13",
      "type": "Feature",
      "properties": {
        "nombre": "El Aburrido",
        "area_ha": 879.856,
        "Shape_Leng": 19684.6760236,
        "Shape_Area": 8472704.91618
      },
      "geometry": {
        "type": "Polygon",
        "coordinates": [
          [
            [
              -76.43932825960772,
              8.339683435642629
            ],
            [
              -76.44075329519906,
              8.338930823325361
            ],
            [
              -76.44197753930302,
              8.338672157841282
            ],
            [
              -76.44289548717046,
              8.338414603513678
            ],
            [
              -76.44350471626146,
              8.33749720999451
            ],
            [
              -76.44319208382167,
              8.335769680282787
            ],
            [
              -76.44262626303517,
              8.33460234444167
            ],
            [
              -76.44241908845459,
              8.333789606570829
            ],
            [
              -76.44236356949993,
              8.332569572349067
            ],
            [
              -76.44286697017229,
              8.330635701627338
            ],
            [
              -76.44218043199054,
              8.329377350407222
            ],
            [
              -76.44265009329719,
              8.328956843539165
            ],
            [
              -76.44444086072669,
              8.3276192217029
            ],
            [
              -76.44509279674291,
              8.326869358473182
            ],
            [
              -76.44531666753494,
              8.326492845979118
            ],
            [
              -76.4471777372181,
              8.326129353556077
            ],
            [
              -76.44861135070494,
              8.326569828841556
            ],
            [
              -76.44888312409726,
              8.327460244243188
            ],
            [
              -76.45130385684367,
              8.328610230549438
            ],
            [
              -76.45202412005438,
              8.3297664228544
            ],
            [
              -76.4524689855534,
              8.32905167196402
            ],
            [
              -76.4530099252281,
              8.330119377243541
            ],
            [
              -76.45353502602758,
              8.330897646421942
            ],
            [
              -76.45359066207793,
              8.330860554932817
            ],
            [
              -76.45372737802025,
              8.330769410965843
            ],
            [
              -76.45381852093234,
              8.330769411182162
            ],
            [
              -76.45386409298146,
              8.330678266985066
            ],
            [
              -76.45390966533239,
              8.33067826752813
            ],
            [
              -76.45390966517307,
              8.33063269515961
            ],
            [
              -76.45395523660966,
              8.330632695707477
            ],
            [
              -76.45395523736205,
              8.330587124236374
            ],
            [
              -76.45404638094631,
              8.330541552047306
            ],
            [
              -76.45404638078557,
              8.330495980588244
            ],
            [
              -76.45404638061906,
              8.330450408225852
            ],
            [
              -76.45404638136164,
              8.330404835855473
            ],
            [
              -76.45404638120742,
              8.330359264396158
            ],
            [
              -76.4540919533474,
              8.330313692572819
            ],
            [
              -76.45413752531063,
              8.330222548389953
            ],
            [
              -76.45413752514658,
              8.330176976031364
            ],
            [
              -76.45413752469128,
              8.330040261664815
            ],
            [
              -76.45413752453594,
              8.329994689305883
            ],
            [
              -76.45413752528965,
              8.329949116938966
            ],
            [
              -76.45413752499773,
              8.32985797312392
            ],
            [
              -76.45413752485901,
              8.329812401667894
            ],
            [
              -76.45418309603188,
              8.329766828967873
            ],
            [
              -76.45418309590013,
              8.329721258417074
            ],
            [
              -76.4541830957547,
              8.329675686059701
            ],
            [
              -76.45422866754294,
              8.329538970450534
            ],
            [
              -76.4542286683078,
              8.329493398087076
            ],
            [
              -76.45427424035877,
              8.329447826290728
            ],
            [
              -76.4542742402158,
              8.329402253937156
            ],
            [
              -76.45431981239916,
              8.329402254493342
            ],
            [
              -76.45431981212502,
              8.329311111596745
            ],
            [
              -76.45436538414069,
              8.329265538899232
            ],
            [
              -76.45441095615372,
              8.329219967103942
            ],
            [
              -76.45441095601367,
              8.329174395659662
            ],
            [
              -76.45454767153579,
              8.329174395498978
            ],
            [
              -76.45463881456442,
              8.329083250995573
            ],
            [
              -76.45477553057187,
              8.328992107003291
            ],
            [
              -76.45482110249917,
              8.328946535192598
            ],
            [
              -76.45491224651303,
              8.32890096389257
            ],
            [
              -76.4550033895924,
              8.32885539258797
            ],
            [
              -76.45500339029992,
              8.32880982025989
            ],
            [
              -76.45509453424222,
              8.328764248035922
            ],
            [
              -76.45518567816484,
              8.328718676702744
            ],
            [
              -76.45527682205191,
              8.328673104453872
            ],
            [
              -76.45532239364994,
              8.328581960318157
            ],
            [
              -76.45541353794437,
              8.328445245252741
            ],
            [
              -76.45541353771695,
              8.328399672951203
            ],
            [
              -76.45550468127142,
              8.328308529296084
            ],
            [
              -76.45550468103994,
              8.328262956998607
            ],
            [
              -76.45555025325038,
              8.328126241475866
            ],
            [
              -76.45559582476861,
              8.328035098261624
            ],
            [
              -76.45559582453959,
              8.32798952596795
            ],
            [
              -76.45559582500292,
              8.327898382275693
            ],
            [
              -76.45559582478042,
              8.327852809981763
            ],
            [
              -76.45564139649575,
              8.327807238167205
            ],
            [
              -76.4556413971792,
              8.327761665867364
            ],
            [
              -76.45568696867237,
              8.327670523570394
            ],
            [
              -76.45568696935706,
              8.327624951272453
            ],
            [
              -76.45568696913702,
              8.327579378982325
            ],
            [
              -76.45568696892711,
              8.327533807595358
            ],
            [
              -76.45573254081877,
              8.327533807174015
            ],
            [
              -76.45573254059782,
              8.327488234885875
            ],
            [
              -76.45573254129384,
              8.327442663492997
            ],
            [
              -76.45577811273905,
              8.327351519401574
            ],
            [
              -76.45577811252151,
              8.327305947115253
            ],
            [
              -76.45582368529722,
              8.327305947589545
            ],
            [
              -76.45582368508448,
              8.32726037620854
            ],
            [
              -76.4558692558152,
              8.327214804413364
            ],
            [
              -76.45586925559357,
              8.3271692321311
            ],
            [
              -76.45586925628103,
              8.327123659840849
            ],
            [
              -76.45591482790184,
              8.327078088040896
            ],
            [
              -76.45591482768938,
              8.327032516663778
            ],
            [
              -76.45596040019547,
              8.326986943953738
            ],
            [
              -76.45600597156759,
              8.326895799877533
            ],
            [
              -76.45600597226809,
              8.326850229399737
            ],
            [
              -76.45605154406532,
              8.326850228974017
            ],
            [
              -76.45609711563763,
              8.32680465717414
            ],
            [
              -76.45614268810628,
              8.326759085365342
            ],
            [
              -76.45618825965748,
              8.326713513563426
            ],
            [
              -76.45623383186718,
              8.326622369486563
            ],
            [
              -76.45627940272028,
              8.326622369053299
            ],
            [
              -76.4563249751467,
              8.326576797240428
            ],
            [
              -76.456370546905,
              8.32657679769417
            ],
            [
              -76.45641611865322,
              8.326576797239419
            ],
            [
              -76.45641611930547,
              8.326531224973948
            ],
            [
              -76.45646169105419,
              8.326531225419355
            ],
            [
              -76.4565072627928,
              8.326531224956268
            ],
            [
              -76.45659840717839,
              8.326531224909711
            ],
            [
              -76.45664397891846,
              8.326531225334127
            ],
            [
              -76.45668954974158,
              8.326531224857955
            ],
            [
              -76.45678069411784,
              8.326531225672651
            ],
            [
              -76.45682626584136,
              8.326531225172836
            ],
            [
              -76.45687183757065,
              8.326531225571017
            ],
            [
              -76.45691741019674,
              8.326531225052806
            ],
            [
              -76.45696298192172,
              8.326531225440494
            ],
            [
              -76.4570085536366,
              8.32653122491969
            ],
            [
              -76.45714526878419,
              8.326531225132301
            ],
            [
              -76.45719084049838,
              8.326531225493753
            ],
            [
              -76.45723641310934,
              8.32653122493881
            ],
            [
              -76.45728198481923,
              8.326531225289768
            ],
            [
              -76.45732755652693,
              8.32653122563548
            ],
            [
              -76.45737312913145,
              8.326531225064794
            ],
            [
              -76.45737312876791,
              8.326485652852455
            ],
            [
              -76.4574187013729,
              8.326485653181924
            ],
            [
              -76.45750984384782,
              8.32648565294559
            ],
            [
              -76.45764656033693,
              8.32644008167948
            ],
            [
              -76.45773770368658,
              8.326440081387094
            ],
            [
              -76.45787441968795,
              8.326348937870582
            ],
            [
              -76.4579655630028,
              8.326348938437603
            ],
            [
              -76.45801113465699,
              8.326348938713254
            ],
            [
              -76.45810227885784,
              8.326348938337645
            ],
            [
              -76.45810227932525,
              8.32630336615159
            ],
            [
              -76.45814785096766,
              8.326303366413645
            ],
            [
              -76.45823899469181,
              8.32625779383911
            ],
            [
              -76.45828456722936,
              8.326257794079677
            ],
            [
              -76.45828456677307,
              8.326212221909993
            ],
            [
              -76.45837571001732,
              8.326212222395515
            ],
            [
              -76.45842128163622,
              8.326212222630408
            ],
            [
              -76.45846685368458,
              8.326166650691023
            ],
            [
              -76.45851242571445,
              8.326121077847374
            ],
            [
              -76.45855799774166,
              8.326075505905946
            ],
            [
              -76.45855799770798,
              8.325984363390292
            ],
            [
              -76.4585579981399,
              8.325938791225141
            ],
            [
              -76.45860357014723,
              8.325893219288924
            ],
            [
              -76.45869471364809,
              8.325756503262332
            ],
            [
              -76.45878585716407,
              8.325710931541808
            ],
            [
              -76.4588314291186,
              8.325665359600519
            ],
            [
              -76.4588770006445,
              8.325665358905606
            ],
            [
              -76.45896814501214,
              8.325619787152304
            ],
            [
              -76.45896814451491,
              8.325574215917067
            ],
            [
              -76.4590137169386,
              8.32557421610607
            ],
            [
              -76.4590137173372,
              8.325528643961743
            ],
            [
              -76.45910486074393,
              8.325483072204046
            ],
            [
              -76.45915043315054,
              8.325483072381626
            ],
            [
              -76.45928714838143,
              8.325391928643437
            ],
            [
              -76.45933272023224,
              8.325346356682704
            ],
            [
              -76.45937829169738,
              8.325346355945195
            ],
            [
              -76.45937829206456,
              8.325300783817713
            ],
            [
              -76.45937829153499,
              8.3252552126013
            ],
            [
              -76.45942386426846,
              8.325209640632709
            ],
            [
              -76.45951500789788,
              8.325118497611557
            ],
            [
              -76.45956057969279,
              8.325072925647833
            ],
            [
              -76.45960615057025,
              8.325027353691004
            ],
            [
              -76.45965172289229,
              8.325027352929222
            ],
            [
              -76.45969729500621,
              8.324936208847346
            ],
            [
              -76.45974286732128,
              8.324936208982638
            ],
            [
              -76.45983401103807,
              8.324936209245383
            ],
            [
              -76.45987958334668,
              8.324936209364951
            ],
            [
              -76.45992515506954,
              8.324890637384835
            ],
            [
              -76.45997072736853,
              8.324890637496054
            ],
            [
              -76.46001629785161,
              8.324890637617838
            ],
            [
              -76.46006187014626,
              8.324890637718568
            ],
            [
              -76.46010744182831,
              8.324845064824938
            ],
            [
              -76.46015301411336,
              8.324845064917332
            ],
            [
              -76.46019858578534,
              8.32479949292284
            ],
            [
              -76.46024415806079,
              8.324799493006903
            ],
            [
              -76.46028973033407,
              8.324799493085719
            ],
            [
              -76.46033530169832,
              8.324799493167214
            ],
            [
              -76.4603808739673,
              8.32479949323554
            ],
            [
              -76.46042644469998,
              8.324753922138845
            ],
            [
              -76.46047201695934,
              8.324753922198836
            ],
            [
              -76.46056316108287,
              8.324662778166033
            ],
            [
              -76.46060873332517,
              8.324662778214606
            ],
            [
              -76.46060873267535,
              8.324617206152068
            ],
            [
              -76.46069987714291,
              8.324617206237814
            ],
            [
              -76.46074544937346,
              8.32461720627281
            ],
            [
              -76.46083659224709,
              8.324571634283153
            ],
            [
              -76.46083659157519,
              8.324526062231243
            ],
            [
              -76.46088216378865,
              8.324526062254824
            ],
            [
              -76.46092773599999,
              8.324526062273153
            ],
            [
              -76.46097330752355,
              8.32448049024073
            ],
            [
              -76.46097330797267,
              8.324389346133636
            ],
            [
              -76.46101888016379,
              8.32438934614796
            ],
            [
              -76.46106445235277,
              8.32438934615703
            ],
            [
              -76.4611100238526,
              8.324343775024833
            ],
            [
              -76.46115559624081,
              8.324298202980462
            ],
            [
              -76.46120116771158,
              8.324252630942986
            ],
            [
              -76.4612467391718,
              8.324207058904502
            ],
            [
              -76.4612467393766,
              8.32416148686345
            ],
            [
              -76.46129231082315,
              8.324115914826029
            ],
            [
              -76.46129231103497,
              8.324070343690206
            ],
            [
              -76.46133788317395,
              8.32407034368293
            ],
            [
              -76.46138345479703,
              8.323979199608578
            ],
            [
              -76.46142902692114,
              8.32397919959513
            ],
            [
              -76.46147459852483,
              8.323888056426156
            ],
            [
              -76.46152017063402,
              8.323888056406544
            ],
            [
              -76.46152017101284,
              8.323796912349085
            ],
            [
              -76.46156574329669,
              8.323751340301852
            ],
            [
              -76.46161131466312,
              8.323705768261533
            ],
            [
              -76.46165688601899,
              8.323660196220189
            ],
            [
              -76.46165688620232,
              8.323614624197564
            ],
            [
              -76.46165688638786,
              8.32356905217485
            ],
            [
              -76.46170245773487,
              8.323523481039887
            ],
            [
              -76.46170245791947,
              8.323477909019164
            ],
            [
              -76.46170245810625,
              8.323432336998358
            ],
            [
              -76.46174803015177,
              8.323432336974122
            ],
            [
              -76.46174802980241,
              8.32329562092558
            ],
            [
              -76.46174802999259,
              8.323250048906594
            ],
            [
              -76.46179360220191,
              8.323204476868845
            ],
            [
              -76.46179360239117,
              8.323158904851852
            ],
            [
              -76.46179360167574,
              8.323113332842679
            ],
            [
              -76.46183917388414,
              8.323067762614553
            ],
            [
              -76.4618847462535,
              8.32297661856592
            ],
            [
              -76.46193031751494,
              8.322931046539287
            ],
            [
              -76.4619303177014,
              8.32288547452826
            ],
            [
              -76.46197589004159,
              8.32279433048575
            ],
            [
              -76.4619758902293,
              8.32274875847663
            ],
            [
              -76.46197588971235,
              8.32265761536929
            ],
            [
              -76.46202146165503,
              8.322657615350318
            ],
            [
              -76.46206703287235,
              8.32261204332896
            ],
            [
              -76.46206703305819,
              8.322566471323823
            ],
            [
              -76.46206703324624,
              8.3225208993186
            ],
            [
              -76.46206703272199,
              8.322429755315815
            ],
            [
              -76.46211260482319,
              8.322384183293842
            ],
            [
              -76.46211260501467,
              8.322338611290444
            ],
            [
              -76.46211260520829,
              8.322293039286956
            ],
            [
              -76.46211260450518,
              8.322247468194536
            ],
            [
              -76.46215817658651,
              8.322201896177786
            ],
            [
              -76.46215817697846,
              8.322110752174545
            ],
            [
              -76.46215817717771,
              8.322065180172796
            ],
            [
              -76.46220374904301,
              8.322065180160934
            ],
            [
              -76.46220374923915,
              8.322019608161265
            ],
            [
              -76.4622037485306,
              8.321974036169415
            ],
            [
              -76.4622037487311,
              8.321928464169572
            ],
            [
              -76.46224932098329,
              8.321837321066576
            ],
            [
              -76.46229489281784,
              8.321837321055034
            ],
            [
              -76.46229489301429,
              8.32179174905926
            ],
            [
              -76.46229489321291,
              8.321746177063398
            ],
            [
              -76.46229489250688,
              8.32170060507536
            ],
            [
              -76.46229489270986,
              8.321655033079331
            ],
            [
              -76.46229489291504,
              8.321609461083215
            ],
            [
              -76.46229489312239,
              8.321563889087015
            ],
            [
              -76.46229489333192,
              8.321518317090728
            ],
            [
              -76.46234046533371,
              8.321472745094862
            ],
            [
              -76.46234046464339,
              8.321427174011717
            ],
            [
              -76.4623860368392,
              8.32133603002461
            ],
            [
              -76.46243160860912,
              8.321336030021111
            ],
            [
              -76.46247718128376,
              8.321336030004476
            ],
            [
              -76.46252275214246,
              8.321336029998397
            ],
            [
              -76.4625683239059,
              8.321336029979165
            ],
            [
              -76.46261389566718,
              8.32133602995469
            ],
            [
              -76.46265946833314,
              8.32133602991706
            ],
            [
              -76.4627050400901,
              8.321336029882096
            ],
            [
              -76.46275061184488,
              8.321336029841888
            ],
            [
              -76.46279618360545,
              8.32133603069969
            ],
            [
              -76.46284175610798,
              8.321381602611776
            ],
            [
              -76.46293289870611,
              8.321381602498242
            ],
            [
              -76.46297847136226,
              8.321381602421743
            ],
            [
              -76.46302404297786,
              8.321427174309868
            ],
            [
              -76.4630696147281,
              8.32142717422863
            ],
            [
              -76.46306961459614,
              8.321472745285105
            ],
            [
              -76.46316075878718,
              8.3215638890052
            ],
            [
              -76.46325190302854,
              8.321655033589911
            ],
            [
              -76.46325190293656,
              8.321700605540554
            ],
            [
              -76.46334304549059,
              8.321746177248595
            ],
            [
              -76.46334304632039,
              8.32179174918683
            ],
            [
              -76.4633886180282,
              8.321837320995504
            ],
            [
              -76.46338861795284,
              8.321882892036086
            ],
            [
              -76.46343418967871,
              8.321928463832846
            ],
            [
              -76.46352533412202,
              8.32197403635566
            ],
            [
              -76.46352533407702,
              8.322019608292734
            ],
            [
              -76.46357090583464,
              8.322065180060536
            ],
            [
              -76.46361647761081,
              8.322110752721935
            ],
            [
              -76.46366205029649,
              8.322156324462519
            ],
            [
              -76.46366205027606,
              8.322201896392771
            ],
            [
              -76.46366205025781,
              8.322247468322935
            ],
            [
              -76.4636620502338,
              8.322293039349775
            ],
            [
              -76.46370762203918,
              8.322384183009623
            ],
            [
              -76.46370762203493,
              8.322429754937287
            ],
            [
              -76.46370762203286,
              8.322475326864863
            ],
            [
              -76.46370762204093,
              8.322520899695593
            ],
            [
              -76.46370762204768,
              8.322612043550325
            ],
            [
              -76.46375319300802,
              8.322657615267202
            ],
            [
              -76.46375319301418,
              8.322703186288956
            ],
            [
              -76.46379876489942,
              8.322748757986037
            ],
            [
              -76.4637987649232,
              8.322794329908694
            ],
            [
              -76.46379876494913,
              8.322839901831268
            ],
            [
              -76.4637987649852,
              8.322885474656996
            ],
            [
              -76.46379876501551,
              8.322931046579399
            ],
            [
              -76.46379876504798,
              8.322976618501716
            ],
            [
              -76.46379876508266,
              8.323022190423952
            ],
            [
              -76.46384433702329,
              8.323067762097878
            ],
            [
              -76.46384433705965,
              8.323113333114543
            ],
            [
              -76.46384433710614,
              8.323158905034358
            ],
            [
              -76.4638443371548,
              8.323204476954091
            ],
            [
              -76.46388990913638,
              8.32325004951486
            ],
            [
              -76.46388990919469,
              8.323295621432258
            ],
            [
              -76.46398105319662,
              8.32338676561712
            ],
            [
              -76.46398105327205,
              8.323432337529939
            ],
            [
              -76.46398105334966,
              8.323477909442676
            ],
            [
              -76.46402662537746,
              8.323523481064504
            ],
            [
              -76.46402662454989,
              8.32356905207958
            ],
            [
              -76.46402662473093,
              8.323660195900134
            ],
            [
              -76.46407219679969,
              8.3237057684088
            ],
            [
              -76.46407219690094,
              8.3237513403167
            ],
            [
              -76.4640721970044,
              8.323796912224514
            ],
            [
              -76.46407219711,
              8.323842484132264
            ],
            [
              -76.4640721972178,
              8.323888056039907
            ],
            [
              -76.46407219652512,
              8.323979198959622
            ],
            [
              -76.46407219663945,
              8.324024770867009
            ],
            [
              -76.46407219676392,
              8.324070343677555
            ],
            [
              -76.46407219688261,
              8.324115915584777
            ],
            [
              -76.46407219712655,
              8.324207059398962
            ],
            [
              -76.4640721972518,
              8.324252631305926
            ],
            [
              -76.46411776850593,
              8.32429820288265
            ],
            [
              -76.46416333963843,
              8.324298203450487
            ],
            [
              -76.4641633397786,
              8.324343775352956
            ],
            [
              -76.464163339913,
              8.324389346352104
            ],
            [
              -76.46416334020424,
              8.324480490156624
            ],
            [
              -76.46420891150991,
              8.324526062610548
            ],
            [
              -76.46420891166626,
              8.324571634510432
            ],
            [
              -76.46425448372511,
              8.32457163414365
            ],
            [
              -76.46430005613014,
              8.32466277846572
            ],
            [
              -76.46430005630361,
              8.324708350361021
            ],
            [
              -76.4643000555724,
              8.324753922264158
            ],
            [
              -76.46434562782323,
              8.324799492867971
            ],
            [
              -76.46439120010055,
              8.324845065268597
            ],
            [
              -76.46439120029333,
              8.324890637159251
            ],
            [
              -76.4643911995814,
              8.324936209057725
            ],
            [
              -76.46443677168183,
              8.324936209555897
            ],
            [
              -76.46443677188427,
              8.3249817814442
            ],
            [
              -76.46443677229563,
              8.325072925220558
            ],
            [
              -76.46448234371715,
              8.325118497600803
            ],
            [
              -76.4645734870347,
              8.325118497658293
            ],
            [
              -76.4645734872617,
              8.32516406953979
            ],
            [
              -76.46457348657607,
              8.325209640525845
            ],
            [
              -76.46461905869165,
              8.325209640086836
            ],
            [
              -76.46471020317148,
              8.325255211971106
            ],
            [
              -76.46480134702924,
              8.325346356607149
            ],
            [
              -76.4648013472936,
              8.32539192847739
            ],
            [
              -76.46484691851263,
              8.325391928011397
            ],
            [
              -76.46484691878446,
              8.32543749987939
            ],
            [
              -76.46489249120073,
              8.325483072167055
            ],
            [
              -76.46493806272073,
              8.32552864445298
            ],
            [
              -76.46498363363288,
              8.325619787695096
            ],
            [
              -76.4650292057766,
              8.325619787189407
            ],
            [
              -76.46512035037992,
              8.325665358920077
            ],
            [
              -76.46516592162351,
              8.325665359307623
            ],
            [
              -76.46516592194543,
              8.325710931159964
            ],
            [
              -76.46525706601511,
              8.325802075602867
            ],
            [
              -76.46525706578849,
              8.325893219306225
            ],
            [
              -76.46530263830759,
              8.325938791504726
            ],
            [
              -76.46534820993041,
              8.325984363701489
            ],
            [
              -76.46534821028081,
              8.326029934641344
            ],
            [
              -76.46539378064107,
              8.326029934090037
            ],
            [
              -76.46539378100687,
              8.326075505930882
            ],
            [
              -76.46543935303382,
              8.326166649944614
            ],
            [
              -76.46543935251253,
              8.326212222694199
            ],
            [
              -76.46548492457684,
              8.326303366691342
            ],
            [
              -76.46548492535797,
              8.32639451036328
            ],
            [
              -76.46548492483697,
              8.326440081303806
            ],
            [
              -76.46548492523299,
              8.32648565313956
            ],
            [
              -76.46548492512468,
              8.32657679681874
            ],
            [
              -76.46548492462831,
              8.326622369565397
            ],
            [
              -76.46548492503304,
              8.326667941400826
            ],
            [
              -76.46548492453309,
              8.326713513244082
            ],
            [
              -76.46548492535345,
              8.32680465691449
            ],
            [
              -76.46548492486797,
              8.32685022966072
            ],
            [
              -76.46539378122701,
              8.326850229074218
            ],
            [
              -76.46539378071722,
              8.326895800018217
            ],
            [
              -76.46539378112448,
              8.326941371857448
            ],
            [
              -76.4653482096551,
              8.327032516150394
            ],
            [
              -76.46530263776576,
              8.327078088603182
            ],
            [
              -76.4652570663647,
              8.327078088298427
            ],
            [
              -76.4652114940546,
              8.327078087996345
            ],
            [
              -76.46521149354251,
              8.32712365985181
            ],
            [
              -76.4651659216246,
              8.3271692322995
            ],
            [
              -76.46512035020646,
              8.327169231983314
            ],
            [
              -76.46507477788724,
              8.327169232573052
            ],
            [
              -76.46502920555791,
              8.327169232254302
            ],
            [
              -76.4650292059359,
              8.32721480411033
            ],
            [
              -76.46498363360708,
              8.327214804691732
            ],
            [
              -76.4648469191177,
              8.327305947407995
            ],
            [
              -76.46480134711977,
              8.327351518936082
            ],
            [
              -76.46475577511923,
              8.327397091366397
            ],
            [
              -76.46475577456951,
              8.327442663242895
            ],
            [
              -76.46475577492885,
              8.327488235111385
            ],
            [
              -76.46471020255531,
              8.32748823567428
            ],
            [
              -76.46471020291153,
              8.32753380754485
            ],
            [
              -76.46466463123099,
              8.32762495094663
            ],
            [
              -76.4646646306816,
              8.327670522827024
            ],
            [
              -76.46466463104127,
              8.327716094699417
            ],
            [
              -76.46466463049623,
              8.327761666579642
            ],
            [
              -76.46466463086026,
              8.32780723845186
            ],
            [
              -76.46466463122647,
              8.327852810323998
            ],
            [
              -76.46466463068796,
              8.32789838220397
            ],
            [
              -76.46466463105853,
              8.327943954075934
            ],
            [
              -76.46466463052438,
              8.327989525955738
            ],
            [
              -76.4646646308993,
              8.328035097827533
            ],
            [
              -76.46466463128436,
              8.328080670602496
            ],
            [
              -76.46466463074881,
              8.328126241578788
            ],
            [
              -76.46466463060705,
              8.32821738532972
            ],
            [
              -76.46466463099286,
              8.32826295720109
            ],
            [
              -76.46461905890776,
              8.328308529663701
            ],
            [
              -76.46461905929266,
              8.328354101537068
            ],
            [
              -76.46461905877284,
              8.328399673418263
            ],
            [
              -76.46461905916209,
              8.328445245291453
            ],
            [
              -76.46461905864665,
              8.328490817172487
            ],
            [
              -76.46461905903232,
              8.328536388142268
            ],
            [
              -76.4645734869211,
              8.328581960614258
            ],
            [
              -76.46452791569823,
              8.328627532174067
            ],
            [
              -76.4645279160878,
              8.328673104051157
            ],
            [
              -76.46452791597456,
              8.328764248716261
            ],
            [
              -76.46448234382493,
              8.328809820289216
            ],
            [
              -76.46443677166472,
              8.328855391861174
            ],
            [
              -76.46443677206256,
              8.328900964645399
            ],
            [
              -76.4644367715398,
              8.328946535630992
            ],
            [
              -76.46443677233047,
              8.32903767939255
            ],
            [
              -76.46443677182221,
              8.329083251281121
            ],
            [
              -76.46443677222298,
              8.329128823161689
            ],
            [
              -76.46443677171908,
              8.32917439505009
            ],
            [
              -76.46443677212423,
              8.329219966930502
            ],
            [
              -76.46443677163262,
              8.329265539721971
            ],
            [
              -76.46443677204215,
              8.329311111602197
            ],
            [
              -76.46443677195286,
              8.329402254467078
            ],
            [
              -76.46443677236891,
              8.329447826347048
            ],
            [
              -76.46443677188026,
              8.329493398234854
            ],
            [
              -76.46443677230066,
              8.329538970114656
            ],
            [
              -76.46443677181637,
              8.329584542002292
            ],
            [
              -76.46443677224113,
              8.329630113881924
            ],
            [
              -76.46443677176914,
              8.329675686672628
            ],
            [
              -76.46443677219827,
              8.32972125855209
            ],
            [
              -76.46443677171474,
              8.329766829536148
            ],
            [
              -76.46443677214823,
              8.329812401415436
            ],
            [
              -76.46443677211488,
              8.329903545181683
            ],
            [
              -76.46443677164801,
              8.32994911706864
            ],
            [
              -76.46443677209022,
              8.329994688947592
            ],
            [
              -76.46443677162772,
              8.330040260834375
            ],
            [
              -76.46443677208224,
              8.330085833616392
            ],
            [
              -76.46443677162411,
              8.330131405503009
            ],
            [
              -76.46443677206707,
              8.330176976478382
            ],
            [
              -76.46448234432525,
              8.330222548606926
            ],
            [
              -76.46448234387894,
              8.330268120491125
            ],
            [
              -76.4644823443417,
              8.330313692367316
            ],
            [
              -76.46448234389976,
              8.330359264251344
            ],
            [
              -76.46452791575865,
              8.33045040824517
            ],
            [
              -76.46452791623541,
              8.330495980118858
            ],
            [
              -76.4645279158075,
              8.330541552000383
            ],
            [
              -76.46457348673837,
              8.330541552232674
            ],
            [
              -76.4645734872248,
              8.33058712410403
            ],
            [
              -76.46457348679857,
              8.33063269507999
            ],
            [
              -76.46457348728934,
              8.330678266951175
            ],
            [
              -76.46457348687542,
              8.330723838830197
            ],
            [
              -76.46457348737853,
              8.330769411604466
            ],
            [
              -76.46461905883633,
              8.330814983689464
            ],
            [
              -76.46461905934113,
              8.330860555558147
            ],
            [
              -76.46461905854349,
              8.330951699311104
            ],
            [
              -76.46461905905481,
              8.330997271179532
            ],
            [
              -76.4646190586535,
              8.33104284215256
            ],
            [
              -76.4646190591692,
              8.331088414020817
            ],
            [
              -76.4646646312078,
              8.331179557948596
            ],
            [
              -76.46466463082842,
              8.331225129822357
            ],
            [
              -76.46466463099108,
              8.331316274464944
            ],
            [
              -76.46466463061827,
              8.331361846338467
            ],
            [
              -76.46466463115452,
              8.331407418203966
            ],
            [
              -76.4646646307781,
              8.331452989174053
            ],
            [
              -76.46466463131871,
              8.331498561039396
            ],
            [
              -76.46466463060065,
              8.331589705688884
            ],
            [
              -76.4646646311478,
              8.331635277553957
            ],
            [
              -76.46466463079025,
              8.331680849426867
            ],
            [
              -76.46466463134175,
              8.331726421291773
            ],
            [
              -76.46466463098855,
              8.331771993164514
            ],
            [
              -76.46471020296273,
              8.331771993314746
            ],
            [
              -76.46471020261701,
              8.331817565185244
            ],
            [
              -76.4647102031724,
              8.331863136144491
            ],
            [
              -76.46471020283103,
              8.331908708014817
            ],
            [
              -76.46471020249184,
              8.331954279885055
            ],
            [
              -76.46475577506023,
              8.331999851881454
            ],
            [
              -76.46475577473865,
              8.332045424652614
            ],
            [
              -76.46475577531818,
              8.33209099651251
            ],
            [
              -76.46480134732509,
              8.332090996637103
            ],
            [
              -76.4648013470052,
              8.33213656850268
            ],
            [
              -76.46484691870286,
              8.332182140483186
            ],
            [
              -76.46484691929953,
              8.332227712338502
            ],
            [
              -76.464892491318,
              8.332227712446103
            ],
            [
              -76.46489249100729,
              8.332273283403861
            ],
            [
              -76.46493806302888,
              8.33227328350407
            ],
            [
              -76.46493806273361,
              8.332318855362816
            ],
            [
              -76.46498363385146,
              8.33231885546352
            ],
            [
              -76.46498363356365,
              8.332364427320016
            ],
            [
              -76.46498363390147,
              8.332455571024836
            ],
            [
              -76.4649836336202,
              8.332501142881076
            ],
            [
              -76.46502920566394,
              8.332501142959952
            ],
            [
              -76.46507477770552,
              8.332501143033577
            ],
            [
              -76.46507477834392,
              8.332546714877484
            ],
            [
              -76.46507477808555,
              8.332592287632487
            ],
            [
              -76.46512034961209,
              8.332683430492214
            ],
            [
              -76.4651203502645,
              8.332729002333618
            ],
            [
              -76.46512034976207,
              8.332820146032024
            ],
            [
              -76.46512034951412,
              8.332865717881099
            ],
            [
              -76.46512035018321,
              8.332911290625393
            ],
            [
              -76.46516592179371,
              8.333002434362452
            ],
            [
              -76.46516592155979,
              8.333048006209024
            ],
            [
              -76.46516592222696,
              8.333093577144346
            ],
            [
              -76.46516592199738,
              8.333139148990746
            ],
            [
              -76.46516592177001,
              8.333184720837066
            ],
            [
              -76.46516592155275,
              8.33323029358655
            ],
            [
              -76.46516592201577,
              8.333321437270829
            ],
            [
              -76.46516592179711,
              8.333367009116806
            ],
            [
              -76.46516592158062,
              8.333412580962698
            ],
            [
              -76.46516592228117,
              8.33345815370381
            ],
            [
              -76.46516592206108,
              8.333503724646297
            ],
            [
              -76.46516592164336,
              8.333594868337483
            ],
            [
              -76.46521149360522,
              8.33364044018675
            ],
            [
              -76.46521149431399,
              8.33368601202204
            ],
            [
              -76.46521149411807,
              8.333731583865173
            ],
            [
              -76.46521149393227,
              8.333777156611456
            ],
            [
              -76.46521149374072,
              8.33382272845442
            ],
            [
              -76.46521149355132,
              8.333868300297295
            ],
            [
              -76.465211494271,
              8.333913872132161
            ],
            [
              -76.46530263757363,
              8.333959443041145
            ],
            [
              -76.46530263830827,
              8.334005014871511
            ],
            [
              -76.46530263814614,
              8.33405058761296
            ],
            [
              -76.46530263797824,
              8.334096159451088
            ],
            [
              -76.46530263781251,
              8.334141731289131
            ],
            [
              -76.46534820987347,
              8.334187303089177
            ],
            [
              -76.4653482097174,
              8.334232874924885
            ],
            [
              -76.46539378103813,
              8.334232874887507
            ],
            [
              -76.4653937808975,
              8.334278447624204
            ],
            [
              -76.46539378075109,
              8.334324019457577
            ],
            [
              -76.4653937805989,
              8.334369590387636
            ],
            [
              -76.46543935270347,
              8.33441516216161
            ],
            [
              -76.46543935256891,
              8.334460733992566
            ],
            [
              -76.46543935334341,
              8.33450630581551
            ],
            [
              -76.46543935322116,
              8.334551878549533
            ],
            [
              -76.46543935309313,
              8.334597450380231
            ],
            [
              -76.46543935296728,
              8.334643022210852
            ],
            [
              -76.4654393528436,
              8.334688594041381
            ],
            [
              -76.46543935272213,
              8.33473416587183
            ],
            [
              -76.46543935260281,
              8.334779737702192
            ],
            [
              -76.46543935339258,
              8.334825309524536
            ],
            [
              -76.46543935316485,
              8.334916453184851
            ],
            [
              -76.46543935305428,
              8.334962025014871
            ],
            [
              -76.46543935294586,
              8.335007596844804
            ],
            [
              -76.4654393528476,
              8.335053169577893
            ],
            [
              -76.46543935274356,
              8.33509874140766
            ],
            [
              -76.46543935253403,
              8.335189884163698
            ],
            [
              -76.46543935334344,
              8.335235455985277
            ],
            [
              -76.46543935325607,
              8.335281028717938
            ],
            [
              -76.46543935316294,
              8.33532660054728
            ],
            [
              -76.46543935307197,
              8.335372172376534
            ],
            [
              -76.46543935298318,
              8.335417744205706
            ],
            [
              -76.46534820987637,
              8.33550888806495
            ],
            [
              -76.46534820978356,
              8.335554459898194
            ],
            [
              -76.46534820968493,
              8.33560003082811
            ],
            [
              -76.46534820960443,
              8.335645603564416
            ],
            [
              -76.46534821034092,
              8.335736747222368
            ],
            [
              -76.465348210259,
              8.335782319055186
            ],
            [
              -76.46534821017924,
              8.335827890887915
            ],
            [
              -76.46534821003425,
              8.335919035456357
            ],
            [
              -76.46530263753004,
              8.335964607411086
            ],
            [
              -76.46530263835267,
              8.336010178334476
            ],
            [
              -76.46525706583479,
              8.336055750290276
            ],
            [
              -76.46525706575753,
              8.336101322126822
            ],
            [
              -76.46525706568245,
              8.336146893963278
            ],
            [
              -76.46525706561752,
              8.33619246670289
            ],
            [
              -76.46521149405466,
              8.336192465914293
            ],
            [
              -76.46521149398662,
              8.336238038655981
            ],
            [
              -76.4651659215094,
              8.336238037872208
            ],
            [
              -76.46516592234512,
              8.336283610608058
            ],
            [
              -76.4651203497061,
              8.336374754409558
            ],
            [
              -76.46512034962026,
              8.33642032534876
            ],
            [
              -76.46512034954456,
              8.336465897191111
            ],
            [
              -76.46512035037793,
              8.33651146902545
            ],
            [
              -76.46507477779595,
              8.33655704099174
            ],
            [
              -76.46507477772148,
              8.336602612836003
            ],
            [
              -76.46507477765718,
              8.336648185583414
            ],
            [
              -76.46507477758709,
              8.336693757427518
            ],
            [
              -76.46502920589207,
              8.336739329391085
            ],
            [
              -76.46502920582104,
              8.336784901237165
            ],
            [
              -76.46502920574422,
              8.336830472179926
            ],
            [
              -76.46498363403241,
              8.336876044146647
            ],
            [
              -76.464983633895,
              8.336967187842541
            ],
            [
              -76.46498363383753,
              8.337012760593597
            ],
            [
              -76.4649836337743,
              8.33705833244133
            ],
            [
              -76.46498363371323,
              8.337103904288977
            ],
            [
              -76.46498363365434,
              8.33714947613654
            ],
            [
              -76.46498363359764,
              8.337195047984036
            ],
            [
              -76.46498363353514,
              8.337240618928174
            ],
            [
              -76.46498363439767,
              8.337286191670806
            ],
            [
              -76.46498363434749,
              8.337331763518026
            ],
            [
              -76.4649836342995,
              8.337377335365165
            ],
            [
              -76.46498363421007,
              8.337468479059183
            ],
            [
              -76.46498363416863,
              8.337514050906064
            ],
            [
              -76.46498363413734,
              8.337559623656098
            ],
            [
              -76.46498363410025,
              8.337605195502809
            ],
            [
              -76.4649380632751,
              8.33760519564504
            ],
            [
              -76.46489249058848,
              8.337650767648832
            ],
            [
              -76.46484691878227,
              8.337696337837189
            ],
            [
              -76.46484691874379,
              8.33774191059337
            ],
            [
              -76.46480134693982,
              8.33778748258928
            ],
            [
              -76.46480134689246,
              8.337833054444214
            ],
            [
              -76.46475577512525,
              8.337833054584173
            ],
            [
              -76.46471020330013,
              8.337878626578055
            ],
            [
              -76.46471020324651,
              8.337924198437147
            ],
            [
              -76.46466463050079,
              8.337969770440017
            ],
            [
              -76.46466463135316,
              8.338015342293172
            ],
            [
              -76.4646190586514,
              8.338015342433932
            ],
            [
              -76.46457348679141,
              8.338060914426844
            ],
            [
              -76.46457348672267,
              8.338106485388847
            ],
            [
              -76.4645279158198,
              8.33810648550758
            ],
            [
              -76.46452791575591,
              8.338152057374895
            ],
            [
              -76.46448234393867,
              8.338152057498464
            ],
            [
              -76.46448234376858,
              8.338186197107685
            ],
            [
              -76.4650352902064,
              8.338810892714212
            ],
            [
              -76.46664962407893,
              8.339696323615003
            ],
            [
              -76.4669224485469,
              8.340854132316121
            ],
            [
              -76.46831038163441,
              8.340658511342838
            ],
            [
              -76.46981087200601,
              8.340469214104237
            ],
            [
              -76.47040668885747,
              8.340066077180607
            ],
            [
              -76.47148025575639,
              8.340372378530013
            ],
            [
              -76.47243686813093,
              8.339824820983008
            ],
            [
              -76.47336886238469,
              8.339291355403919
            ],
            [
              -76.4741891560467,
              8.339655930421165
            ],
            [
              -76.47482716249588,
              8.340612939486332
            ],
            [
              -76.47560188522931,
              8.340886371347706
            ],
            [
              -76.47646775064023,
              8.34143323303959
            ],
            [
              -76.47642217900872,
              8.342663674461129
            ],
            [
              -76.47642217853424,
              8.343575112334516
            ],
            [
              -76.4764221789347,
              8.344486550173857
            ],
            [
              -76.47637660739312,
              8.345625847253666
            ],
            [
              -76.4761943195317,
              8.346628428895116
            ],
            [
              -76.47578417205084,
              8.347448723154281
            ],
            [
              -76.47560188479852,
              8.348815880613637
            ],
            [
              -76.47605760383357,
              8.34968174608211
            ],
            [
              -76.47610317549393,
              8.350502040329335
            ],
            [
              -76.47596645977252,
              8.351459049490302
            ],
            [
              -76.47555631275527,
              8.351823624131107
            ],
            [
              -76.47382458105396,
              8.35177805324548
            ],
            [
              -76.47204727702733,
              8.35141347752917
            ],
            [
              -76.46995097130618,
              8.350821043162597
            ],
            [
              -76.467900234688,
              8.350684327206189
            ],
            [
              -76.46776351976273,
              8.351778053019894
            ],
            [
              -76.4682648108444,
              8.353737644694778
            ],
            [
              -76.46824700066655,
              8.355640269507662
            ],
            [
              -76.46885724523817,
              8.356517529277319
            ],
            [
              -76.46990539909412,
              8.356790960376415
            ],
            [
              -76.46981425463055,
              8.357839113862694
            ],
            [
              -76.46944967979974,
              8.359115127446136
            ],
            [
              -76.46931296426742,
              8.360072137216825
            ],
            [
              -76.46867495784869,
              8.360163280291646
            ],
            [
              -76.46821923920848,
              8.359570846628772
            ],
            [
              -76.46803695108811,
              8.358477119980424
            ],
            [
              -76.46758123173136,
              8.357109964633539
            ],
            [
              -76.46625964718707,
              8.355606091349438
            ],
            [
              -76.46548492503396,
              8.354922513097488
            ],
            [
              -76.46525706634311,
              8.354102219219554
            ],
            [
              -76.46498363385399,
              8.353509783922593
            ],
            [
              -76.46434562756167,
              8.35309963747961
            ],
            [
              -76.4637076221746,
              8.352826206009004
            ],
            [
              -76.46280601157852,
              8.35103833972287
            ],
            [
              -76.46203503274124,
              8.350321021453803
            ],
            [
              -76.46234686186877,
              8.348218749137567
            ],
            [
              -76.46183917425796,
              8.347950014261738
            ],
            [
              -76.46106445173385,
              8.347175292056262
            ],
            [
              -76.46157160057463,
              8.346044012906674
            ],
            [
              -76.45960254717352,
              8.346051270410637
            ],
            [
              -76.45933503229232,
              8.346319676186868
            ],
            [
              -76.4578167949334,
              8.347216666707322
            ],
            [
              -76.45773192182098,
              8.348464940177065
            ],
            [
              -76.4573805223876,
              8.350249035343033
            ],
            [
              -76.45658160162121,
              8.352034777502805
            ],
            [
              -76.45532623367016,
              8.351415412309995
            ],
            [
              -76.45452003751662,
              8.351240093342321
            ],
            [
              -76.45308764616934,
              8.351156212698756
            ],
            [
              -76.45290303438651,
              8.349641502854427
            ],
            [
              -76.45334560500375,
              8.348302774841983
            ],
            [
              -76.45375403492791,
              8.347906173704935
            ],
            [
              -76.4536112671681,
              8.347656329882442
            ],
            [
              -76.45318296369587,
              8.347513561597893
            ],
            [
              -76.45217942717157,
              8.347593930287632
            ],
            [
              -76.45150173179708,
              8.347968386995408
            ],
            [
              -76.45009918216307,
              8.347856204674253
            ],
            [
              -76.44901414938066,
              8.348198846625404
            ],
            [
              -76.44747225715261,
              8.348998345661608
            ],
            [
              -76.44652701854609,
              8.349453886363523
            ],
            [
              -76.4454788652666,
              8.349772889111021
            ],
            [
              -76.44493200264685,
              8.350684327176682
            ],
            [
              -76.4441117092986,
              8.35150462112031
            ],
            [
              -76.44233440525478,
              8.353008494008227
            ],
            [
              -76.44087610396723,
              8.354193363146557
            ],
            [
              -76.44041822911463,
              8.35516634785057
            ],
            [
              -76.43958787293559,
              8.355395132881318
            ],
            [
              -76.43886333620719,
              8.353080106084343
            ],
            [
              -76.43921351685555,
              8.350939454686486
            ],
            [
              -76.43938599364013,
              8.349156011678735
            ],
            [
              -76.44009385808478,
              8.346924918689476
            ],
            [
              -76.44062401795746,
              8.345051034222251
            ],
            [
              -76.44178232557714,
              8.34362057007951
            ],
            [
              -76.44159939829669,
              8.342551546011403
            ],
            [
              -76.44052079824135,
              8.341307496127413
            ],
            [
              -76.43953203230956,
              8.340152256448135
            ],
            [
              -76.43932825960772,
              8.339683435642629
            ]
          ]
        ]
      }
    }
  ]
}
