{
  "type": "FeatureCollection",
  "features": [
    {
      "id": "24",
      "type": "Feature",
      "properties": {
        "nombre": "Las Platas II",
        "area_ha": 0.0,
        "Shape_Leng": 2786.70293382,
        "Shape_Area": 453117.251919
      },
      "geometry": {
        "type": "Polygon",
        "coordinates": [
          [
            [
              -76.48275864088859,
              8.562160108458974
            ],
            [
              -76.48277501761496,
              8.563958877468435
            ],
            [
              -76.48186513648453,
              8.566696479473325
            ],
            [
              -76.48181072785749,
              8.567565413806053
            ],
            [
              -76.4804595415994,
              8.569748714879767
            ],
            [
              -76.47952987828447,
              8.57031538593245
            ],
            [
              -76.47784168712703,
              8.569710289545137
            ],
            [
              -76.47727237464055,
              8.568784941145632
            ],
            [
              -76.47707132257516,
              8.567235953299065
            ],
            [
              -76.47737274967582,
              8.566116661875148
            ],
            [
              -76.47823501798425,
              8.564992318720119
            ],
            [
              -76.47872395346066,
              8.56393337029154
            ],
            [
              -76.47865035610424,
              8.562693395358185
            ],
            [
              -76.47902086387818,
              8.562317866531444
            ],
            [
              -76.47951205172774,
              8.561507026495475
            ],
            [
              -76.47962822088842,
              8.560575501833284
            ],
            [
              -76.48087169736559,
              8.56025413798949
            ],
            [
              -76.48168348246797,
              8.560432915765457
            ],
            [
              -76.48237797679069,
              8.561419161012793
            ],
            [
              -76.48275864088859,
              8.562160108458974
            ]
          ]
        ]
      }
    }
  ]
}
