{
  "type": "FeatureCollection",
  "features": [
    {
      "id": "15",
      "type": "Feature",
      "properties": {
        "nombre": "Las Changas",
        "area_ha": 420.527,
        "Shape_Leng": 9507.21222651,
        "Shape_Area": 3651186.63845
      },
      "geometry": {
        "type": "Polygon",
        "coordinates": [
          [
            [
              -76.5720766895801,
              8.551483727388574
            ],
            [
              -76.57198718088789,
              8.551511970212278
            ],
            [
              -76.57016210266359,
              8.550650566634248
            ],
            [
              -76.56945712362567,
              8.550393170683842
            ],
            [
              -76.56997129159065,
              8.54866328655773
            ],
            [
              -76.5701816837373,
              8.54751898668063
            ],
            [
              -76.57060813560344,
              8.546755868358536
            ],
            [
              -76.57038116900334,
              8.545999140352567
            ],
            [
              -76.57002044050053,
              8.545376659166388
            ],
            [
              -76.5700626600663,
              8.544752543640955
            ],
            [
              -76.5700162469317,
              8.544351625451752
            ],
            [
              -76.57032654852344,
              8.543592721626137
            ],
            [
              -76.57005463786945,
              8.542791609975465
            ],
            [
              -76.5699610845135,
              8.541811505730122
            ],
            [
              -76.56982221436017,
              8.540697882251028
            ],
            [
              -76.56968407350706,
              8.539762525973474
            ],
            [
              -76.56959143350015,
              8.539005254494691
            ],
            [
              -76.5697654185791,
              8.537756661096685
            ],
            [
              -76.56980654693379,
              8.536865145988738
            ],
            [
              -76.57047464877708,
              8.536015658393119
            ],
            [
              -76.57065190969632,
              8.535569266195987
            ],
            [
              -76.5704695473846,
              8.53476779132604
            ],
            [
              -76.57078093834812,
              8.53427628797687
            ],
            [
              -76.57127268538424,
              8.534096025557325
            ],
            [
              -76.57234772622436,
              8.534225369828533
            ],
            [
              -76.57261872094305,
              8.53480364766892
            ],
            [
              -76.57289062906005,
              8.535604757854896
            ],
            [
              -76.57316089637564,
              8.536004767568246
            ],
            [
              -76.57360769026734,
              8.535780116862952
            ],
            [
              -76.57383026592697,
              8.535467242089712
            ],
            [
              -76.57463504237961,
              8.535196570317332
            ],
            [
              -76.57566421808264,
              8.535058685854596
            ],
            [
              -76.57745357736353,
              8.53469487314186
            ],
            [
              -76.577097425606,
              8.535186561677424
            ],
            [
              -76.57638164429888,
              8.535323174590088
            ],
            [
              -76.57593485288037,
              8.535547827628461
            ],
            [
              -76.57557814931737,
              8.535905815998772
            ],
            [
              -76.57535612430885,
              8.536352392100584
            ],
            [
              -76.57553648665596,
              8.536663629913466
            ],
            [
              -76.57558180561772,
              8.536797147617616
            ],
            [
              -76.57585427060562,
              8.537731954162812
            ],
            [
              -76.5761227130537,
              8.537686295717613
            ],
            [
              -76.57760179913909,
              8.538081383315095
            ],
            [
              -76.57899207747485,
              8.53865509604634
            ],
            [
              -76.57966547564392,
              8.539098025089066
            ],
            [
              -76.58105869753835,
              8.540384791934223
            ],
            [
              -76.58155466717658,
              8.541229545301617
            ],
            [
              -76.58155736996535,
              8.5418853950996
            ],
            [
              -76.58278874269419,
              8.54204775684897
            ],
            [
              -76.58426805919882,
              8.54269793741117
            ],
            [
              -76.58591174265841,
              8.543185571155364
            ],
            [
              -76.5871374021807,
              8.5437865236804
            ],
            [
              -76.58837726870173,
              8.5423728471035
            ],
            [
              -76.58977440062809,
              8.542860482055323
            ],
            [
              -76.5903496908593,
              8.543998292910901
            ],
            [
              -76.59061892827717,
              8.546139376158072
            ],
            [
              -76.59098116611267,
              8.54711836168086
            ],
            [
              -76.59107440663786,
              8.54800931798169
            ],
            [
              -76.59009127351032,
              8.548459027106519
            ],
            [
              -76.5891974988676,
              8.548863800019504
            ],
            [
              -76.5877655361042,
              8.549047944182476
            ],
            [
              -76.58701400212627,
              8.55136851365461
            ],
            [
              -76.58697402605488,
              8.55252742140887
            ],
            [
              -76.58576867365265,
              8.553379137042675
            ],
            [
              -76.58484334833358,
              8.554888605675997
            ],
            [
              -76.58410368978417,
              8.556757806402786
            ],
            [
              -76.58361058487897,
              8.558058114911452
            ],
            [
              -76.58237782236873,
              8.55895207433912
            ],
            [
              -76.58056976918495,
              8.559764763339865
            ],
            [
              -76.57933700449001,
              8.55976476287068
            ],
            [
              -76.57843297881838,
              8.558220653713182
            ],
            [
              -76.57709030574044,
              8.555241866265524
            ],
            [
              -76.57663909357174,
              8.554396926934565
            ],
            [
              -76.57596347026296,
              8.553419199923823
            ],
            [
              -76.57542290136168,
              8.55261919067323
            ],
            [
              -76.5748390255046,
              8.55217589471433
            ],
            [
              -76.57416542375928,
              8.551688393405541
            ],
            [
              -76.57416469218705,
              8.55151012763684
            ],
            [
              -76.57362449549305,
              8.550799246545024
            ],
            [
              -76.57354906717558,
              8.55051859794667
            ],
            [
              -76.5727589810079,
              8.550795835711156
            ],
            [
              -76.57207520832566,
              8.551472006687167
            ],
            [
              -76.5720766895801,
              8.551483727388574
            ]
          ]
        ]
      }
    }
  ]
}
