{
  "type": "FeatureCollection",
  "features": [
    {
      "id": "14",
      "type": "Feature",
      "properties": {
        "nombre": "Las Platas",
        "area_ha": 917.166,
        "Shape_Leng": 14679.5790823,
        "Shape_Area": 7936458.98755
      },
      "geometry": {
        "type": "Polygon",
        "coordinates": [
          [
            [
              -76.44241079829317,
              8.565205765947278
            ],
            [
              -76.44365192714383,
              8.563129186834228
            ],
            [
              -76.44400685029527,
              8.561327655939394
            ],
            [
              -76.4442162745428,
              8.559310644621632
            ],
            [
              -76.44420786009499,
              8.557078421395182
            ],
            [
              -76.44420107650818,
              8.555278242226562
            ],
            [
              -76.44390737367897,
              8.554127206943939
            ],
            [
              -76.44462535210118,
              8.552684362766524
            ],
            [
              -76.4446930802268,
              8.551459970895419
            ],
            [
              -76.44418208988947,
              8.550237737983466
            ],
            [
              -76.44229990233309,
              8.549884714539823
            ],
            [
              -76.4392643331385,
              8.550616096808183
            ],
            [
              -76.43753168263723,
              8.551558645826729
            ],
            [
              -76.43565408870911,
              8.551867245771561
            ],
            [
              -76.43637036933261,
              8.551491157000846
            ],
            [
              -76.43665401472626,
              8.550425642307701
            ],
            [
              -76.4372447881362,
              8.549658869887567
            ],
            [
              -76.43768786799251,
              8.549293740008242
            ],
            [
              -76.43856019370541,
              8.549034128514137
            ],
            [
              -76.4387217195901,
              8.547687164326078
            ],
            [
              -76.43953403249989,
              8.547431572643744
            ],
            [
              -76.43990326550603,
              8.547212493172548
            ],
            [
              -76.44042019234486,
              8.547175979568484
            ],
            [
              -76.44138019655047,
              8.546993412888495
            ],
            [
              -76.44248789600779,
              8.5467378214252
            ],
            [
              -76.44330020886491,
              8.54640920087191
            ],
            [
              -76.44374328776588,
              8.545824988046546
            ],
            [
              -76.44481406374123,
              8.54505820760676
            ],
            [
              -76.44566330001878,
              8.544766099122002
            ],
            [
              -76.44735609330864,
              8.544643517437539
            ],
            [
              -76.44910974475368,
              8.544404092463559
            ],
            [
              -76.45013887955459,
              8.544221961498204
            ],
            [
              -76.45223837876458,
              8.54292157288111
            ],
            [
              -76.45326531391711,
              8.542160036675837
            ],
            [
              -76.45433887563435,
              8.541888589176558
            ],
            [
              -76.45527743818528,
              8.541439368004589
            ],
            [
              -76.45576893627616,
              8.541170103494533
            ],
            [
              -76.45693187097201,
              8.540853744954166
            ],
            [
              -76.45782633052984,
              8.540582961859469
            ],
            [
              -76.45793072870023,
              8.53937547118737
            ],
            [
              -76.45801856386018,
              8.538789157185596
            ],
            [
              -76.45841382174689,
              8.538246271893362
            ],
            [
              -76.45898475017503,
              8.53750794790708
            ],
            [
              -76.45959959581074,
              8.537051923098678
            ],
            [
              -76.46010464728451,
              8.536682760655319
            ],
            [
              -76.46032423488522,
              8.536226734898532
            ],
            [
              -76.46036815226113,
              8.53548840683758
            ],
            [
              -76.46045598652034,
              8.534076891829983
            ],
            [
              -76.46025835822255,
              8.533186550562881
            ],
            [
              -76.46140021539321,
              8.533577433035898
            ],
            [
              -76.46177351336752,
              8.533838020453882
            ],
            [
              -76.46210289532736,
              8.533990030613015
            ],
            [
              -76.4623444415978,
              8.53422890219251
            ],
            [
              -76.46284949357582,
              8.53422890243276
            ],
            [
              -76.46320083389962,
              8.534446058195977
            ],
            [
              -76.46372784371503,
              8.534511204866373
            ],
            [
              -76.46462815249133,
              8.534467772880001
            ],
            [
              -76.46541866882512,
              8.534793508409951
            ],
            [
              -76.4657919686256,
              8.535054094896186
            ],
            [
              -76.46662640135499,
              8.535314681963937
            ],
            [
              -76.46715341230777,
              8.53564041518624
            ],
            [
              -76.46828648010035,
              8.536131091603709
            ],
            [
              -76.46986043991632,
              8.537930189108726
            ],
            [
              -76.47044453818864,
              8.538462806883743
            ],
            [
              -76.47147637075422,
              8.538993723943666
            ],
            [
              -76.47205944783848,
              8.539258925571108
            ],
            [
              -76.47251008622516,
              8.540014893174728
            ],
            [
              -76.47268986283368,
              8.540192486845752
            ],
            [
              -76.47354124018948,
              8.540367528605596
            ],
            [
              -76.47394779325136,
              8.541301938354692
            ],
            [
              -76.47417576813889,
              8.542370734903454
            ],
            [
              -76.47381946221297,
              8.542862352857414
            ],
            [
              -76.4730622437426,
              8.543890329172289
            ],
            [
              -76.47288947761625,
              8.545540052381702
            ],
            [
              -76.47302807756894,
              8.546653758945734
            ],
            [
              -76.47298792376051,
              8.547857284087284
            ],
            [
              -76.47236364973342,
              8.5485281988305
            ],
            [
              -76.47232332437241,
              8.549687155013451
            ],
            [
              -76.47174365015275,
              8.550313330682277
            ],
            [
              -76.47103016250009,
              8.551073722296191
            ],
            [
              -76.47058446767315,
              8.551610248701683
            ],
            [
              -76.46946885650425,
              8.552595013119083
            ],
            [
              -76.46938977171652,
              8.552926688162199
            ],
            [
              -76.46786347934871,
              8.553817112611243
            ],
            [
              -76.46743799659366,
              8.5549391123836
            ],
            [
              -76.46710706609578,
              8.556341605715856
            ],
            [
              -76.46705979013981,
              8.558164838236092
            ],
            [
              -76.46649247987722,
              8.558959578089347
            ],
            [
              -76.46483782406791,
              8.560362055866928
            ],
            [
              -76.46457811064647,
              8.561638876576765
            ],
            [
              -76.46390766285397,
              8.561953401919398
            ],
            [
              -76.46261085874845,
              8.562404005871139
            ],
            [
              -76.4617618143923,
              8.562852913064303
            ],
            [
              -76.46100027725083,
              8.562766653493586
            ],
            [
              -76.46028402804424,
              8.562813930292275
            ],
            [
              -76.45983711506575,
              8.563038466270218
            ],
            [
              -76.45916733908786,
              8.563531259836111
            ],
            [
              -76.45791394060286,
              8.563625130270113
            ],
            [
              -76.45689172521857,
              8.5637307719607
            ],
            [
              -76.4561928065717,
              8.563833848622092
            ],
            [
              -76.45570643674588,
              8.564482853369213
            ],
            [
              -76.4545618145209,
              8.5648479694174
            ],
            [
              -76.45437719762202,
              8.565249595526359
            ],
            [
              -76.45345411591381,
              8.56546866421216
            ],
            [
              -76.45297411298007,
              8.565833778879348
            ],
            [
              -76.45293719010645,
              8.566564006590257
            ],
            [
              -76.45308488255446,
              8.56718469915117
            ],
            [
              -76.45267872721854,
              8.568316548554396
            ],
            [
              -76.45205102996213,
              8.567805391129804
            ],
            [
              -76.45194026086806,
              8.567148187900713
            ],
            [
              -76.45168179752058,
              8.56667354148357
            ],
            [
              -76.4514233337374,
              8.566089358010602
            ],
            [
              -76.45127564094399,
              8.565286107619801
            ],
            [
              -76.45160635794507,
              8.565203358284055
            ],
            [
              -76.45164692816532,
              8.564094417565277
            ],
            [
              -76.45061791104148,
              8.564321129582494
            ],
            [
              -76.4503965607115,
              8.564990507002753
            ],
            [
              -76.44869521515866,
              8.56504145891589
            ],
            [
              -76.44824677315326,
              8.564864860497856
            ],
            [
              -76.44685852736826,
              8.564825491182638
            ],
            [
              -76.44726033763489,
              8.564511997870515
            ],
            [
              -76.44658514953082,
              8.563578560038716
            ],
            [
              -76.44640486624375,
              8.563267245690623
            ],
            [
              -76.44537466785928,
              8.563181960058985
            ],
            [
              -76.44497403331961,
              8.563807435583053
            ],
            [
              -76.44408152637949,
              8.564613029609227
            ],
            [
              -76.44269562906499,
              8.56519761438609
            ],
            [
              -76.44241079829317,
              8.565205765947278
            ]
          ]
        ]
      }
    }
  ]
}
