{
  "type": "FeatureCollection",
  "features": [
    {
      "id": "17",
      "type": "Feature",
      "properties": {
        "nombre": "Melito Alto",
        "area_ha": 208.606,
        "Shape_Leng": 6174.97135913,
        "Shape_Area": 2090996.89726
      },
      "geometry": {
        "type": "Polygon",
        "coordinates": [
          [
            [
              -76.63053785915407,
              8.593132713991734
            ],
            [
              -76.63066971099643,
              8.592552796553482
            ],
            [
              -76.63068183879994,
              8.592508612304048
            ],
            [
              -76.63004149806173,
              8.591934816068836
            ],
            [
              -76.62999798233405,
              8.591160309476768
            ],
            [
              -76.63012853095091,
              8.590213686181816
            ],
            [
              -76.62982391628947,
              8.589611289510806
            ],
            [
              -76.62947578289726,
              8.588922834502169
            ],
            [
              -76.62904061803667,
              8.588578606699354
            ],
            [
              -76.62869248575814,
              8.587675006153159
            ],
            [
              -76.62864896952995,
              8.586556261153925
            ],
            [
              -76.62877951893257,
              8.585867799937168
            ],
            [
              -76.6293017172422,
              8.585222366825064
            ],
            [
              -76.62973688282042,
              8.584921164980436
            ],
            [
              -76.63056369573562,
              8.584361788447291
            ],
            [
              -76.63095534514216,
              8.583630294081022
            ],
            [
              -76.63099886133796,
              8.582554566350089
            ],
            [
              -76.63125996025356,
              8.581823069473169
            ],
            [
              -76.63167401176804,
              8.581123806585122
            ],
            [
              -76.63178346823858,
              8.580749220309906
            ],
            [
              -76.63218463177282,
              8.580324145117299
            ],
            [
              -76.63263095024068,
              8.579988011020504
            ],
            [
              -76.63345861307275,
              8.579828526501515
            ],
            [
              -76.63381499956569,
              8.579403639931744
            ],
            [
              -76.63410393759965,
              8.578912190295405
            ],
            [
              -76.63466256973759,
              8.578664710428843
            ],
            [
              -76.6350874503484,
              8.57855149527932
            ],
            [
              -76.63593863934057,
              8.578659301360569
            ],
            [
              -76.63618432547852,
              8.57852456144446
            ],
            [
              -76.63752755561512,
              8.57851886311702
            ],
            [
              -76.63864528853934,
              8.578135307081446
            ],
            [
              -76.63880171169866,
              8.578067794691172
            ],
            [
              -76.63927102879245,
              8.577876394296442
            ],
            [
              -76.63978555001228,
              8.57778507659153
            ],
            [
              -76.6403246569146,
              8.57820616092119
            ],
            [
              -76.6405281493097,
              8.578673237609122
            ],
            [
              -76.64082052128,
              8.578983955388967
            ],
            [
              -76.64093398692562,
              8.579339999009072
            ],
            [
              -76.64069031163537,
              8.579942675426913
            ],
            [
              -76.64062496779565,
              8.580366328361794
            ],
            [
              -76.64098459864518,
              8.58069904244947
            ],
            [
              -76.64179254957132,
              8.581163544845557
            ],
            [
              -76.64210712064646,
              8.581429601966295
            ],
            [
              -76.64222049434437,
              8.58176336316018
            ],
            [
              -76.64206540949822,
              8.582142833095592
            ],
            [
              -76.6420898087099,
              8.582610670203593
            ],
            [
              -76.64219858793236,
              8.582742766227366
            ],
            [
              -76.64292238386693,
              8.58285577019536
            ],
            [
              -76.64300941659135,
              8.583458178096695
            ],
            [
              -76.64214766886973,
              8.584546769435493
            ],
            [
              -76.64244018353818,
              8.585996180102546
            ],
            [
              -76.64253073483555,
              8.58659928903387
            ],
            [
              -76.64184242660234,
              8.58755853170828
            ],
            [
              -76.64186816812352,
              8.588338322661862
            ],
            [
              -76.64196501984469,
              8.589568261361297
            ],
            [
              -76.64170392074007,
              8.590385800698124
            ],
            [
              -76.64139930556414,
              8.591332421514693
            ],
            [
              -76.64083359098083,
              8.592149956429779
            ],
            [
              -76.64009381123633,
              8.592752350705414
            ],
            [
              -76.63891886534643,
              8.592752350556733
            ],
            [
              -76.63822260061788,
              8.592752350073605
            ],
            [
              -76.63761336961483,
              8.593053546362638
            ],
            [
              -76.6372217210453,
              8.593569882553762
            ],
            [
              -76.63669952269801,
              8.59365593709414
            ],
            [
              -76.63609029223777,
              8.593569882380587
            ],
            [
              -76.63530699499583,
              8.593483825835241
            ],
            [
              -76.6343931489442,
              8.593268686649555
            ],
            [
              -76.63380731953686,
              8.592987334655794
            ],
            [
              -76.63347145847288,
              8.593298548145038
            ],
            [
              -76.63313878606715,
              8.594035297181959
            ],
            [
              -76.63262672011527,
              8.59470595972262
            ],
            [
              -76.63218000568332,
              8.594952965142276
            ],
            [
              -76.63198213467113,
              8.595800559708312
            ],
            [
              -76.6314914996014,
              8.596248298689519
            ],
            [
              -76.63081851814401,
              8.595939186890462
            ],
            [
              -76.63054604914556,
              8.595049019023834
            ],
            [
              -76.63058720600503,
              8.59420209020747
            ],
            [
              -76.63053785915407,
              8.593132713991734
            ]
          ]
        ]
      }
    }
  ]
}
