{
  "type": "FeatureCollection",
  "features": [
    {
      "id": "9",
      "type": "Feature",
      "properties": {
        "nombre": "Palmares Cenizosa",
        "area_ha": 409.846,
        "Shape_Leng": 9056.0915003,
        "Shape_Area": 4107966.68383
      },
      "geometry": {
        "type": "Polygon",
        "coordinates": [
          [
            [
              -76.61396114985732,
              8.512152324412932
            ],
            [
              -76.61320846173159,
              8.511856221121734
            ],
            [
              -76.61290694872991,
              8.51163305143345
            ],
            [
              -76.6125301878563,
              8.511385257560622
            ],
            [
              -76.61210447871649,
              8.511411959152037
            ],
            [
              -76.61120421823999,
              8.511764791686224
            ],
            [
              -76.61015158333824,
              8.511619538123455
            ],
            [
              -76.60932479605648,
              8.511573090443713
            ],
            [
              -76.60784572433342,
              8.511279981539467
            ],
            [
              -76.60701820830582,
              8.51105898161852
            ],
            [
              -76.60649199516902,
              8.511011285252431
            ],
            [
              -76.60596443050672,
              8.510639428576575
            ],
            [
              -76.60531173289397,
              8.510293023120783
            ],
            [
              -76.60508329089924,
              8.509570829500461
            ],
            [
              -76.60455365370414,
              8.508700263846825
            ],
            [
              -76.60470155217645,
              8.508126131869385
            ],
            [
              -76.60417233366758,
              8.507355305995961
            ],
            [
              -76.603946178649,
              8.50718168906766
            ],
            [
              -76.60339160467747,
              8.506336158999243
            ],
            [
              -76.60318977166418,
              8.50598788954608
            ],
            [
              -76.60303534003883,
              8.504991095058777
            ],
            [
              -76.60303368091806,
              8.50459212927908
            ],
            [
              -76.60320611033437,
              8.503893217166526
            ],
            [
              -76.60355480402706,
              8.503418000966313
            ],
            [
              -76.6040792436674,
              8.503041803045463
            ],
            [
              -76.60400244147975,
              8.50264314689776
            ],
            [
              -76.60395048109274,
              8.502194517257411
            ],
            [
              -76.60402386051886,
              8.501770307079976
            ],
            [
              -76.60394457109021,
              8.500773202148789
            ],
            [
              -76.60376530121628,
              8.499826381963008
            ],
            [
              -76.60376198436876,
              8.499028450861475
            ],
            [
              -76.60458770907692,
              8.498825562281606
            ],
            [
              -76.60513988636812,
              8.499097579269334
            ],
            [
              -76.60554178096758,
              8.49937021544256
            ],
            [
              -76.60609240202864,
              8.499268200589842
            ],
            [
              -76.60636646615302,
              8.498917969378017
            ],
            [
              -76.606162872013,
              8.498145801697909
            ],
            [
              -76.60616069317615,
              8.497622159335549
            ],
            [
              -76.6059089778403,
              8.497323968495806
            ],
            [
              -76.60555863176518,
              8.497400221320481
            ],
            [
              -76.60503337122738,
              8.49757693635576
            ],
            [
              -76.60448378847664,
              8.497928302221178
            ],
            [
              -76.60395811171507,
              8.498005275607802
            ],
            [
              -76.60363156804098,
              8.497782198361097
            ],
            [
              -76.60368000422436,
              8.49738302692061
            ],
            [
              -76.60407733553374,
              8.496558509237206
            ],
            [
              -76.60452631430483,
              8.496107815669696
            ],
            [
              -76.60535109963254,
              8.49568050971143
            ],
            [
              -76.60577565106885,
              8.495379529444865
            ],
            [
              -76.60647561408092,
              8.495052478483895
            ],
            [
              -76.60674998680942,
              8.494777053196794
            ],
            [
              -76.60707289613447,
              8.494127392240976
            ],
            [
              -76.60697052970576,
              8.49360416328671
            ],
            [
              -76.60684197449531,
              8.492806749724434
            ],
            [
              -76.60684021154604,
              8.492382849845564
            ],
            [
              -76.60698800129093,
              8.491783781532991
            ],
            [
              -76.60723701415219,
              8.49143365422166
            ],
            [
              -76.60786234789417,
              8.491231588922908
            ],
            [
              -76.60801075786797,
              8.490782133281117
            ],
            [
              -76.60871143776423,
              8.490629626509962
            ],
            [
              -76.60896107116872,
              8.49042911021762
            ],
            [
              -76.60951334065072,
              8.490726058462574
            ],
            [
              -76.6101167438457,
              8.491272151202374
            ],
            [
              -76.61026847937688,
              8.491620624172615
            ],
            [
              -76.61097144537634,
              8.492016689150738
            ],
            [
              -76.61252516528876,
              8.492209747435382
            ],
            [
              -76.61342788279113,
              8.49245536747928
            ],
            [
              -76.61437860920819,
              8.492202071982655
            ],
            [
              -76.61567977609022,
              8.491897451183144
            ],
            [
              -76.61623059019638,
              8.491845295352801
            ],
            [
              -76.61668602016034,
              8.492940573505942
            ],
            [
              -76.61704022297687,
              8.493786914689956
            ],
            [
              -76.61794252719694,
              8.49393278136082
            ],
            [
              -76.61834410750589,
              8.494130598867669
            ],
            [
              -76.61919945822792,
              8.495024725957782
            ],
            [
              -76.62000429929672,
              8.49581931746677
            ],
            [
              -76.62065676986052,
              8.496115829979402
            ],
            [
              -76.62095858674112,
              8.496413800631425
            ],
            [
              -76.62166219992456,
              8.49695945414124
            ],
            [
              -76.62246642124055,
              8.497604428642106
            ],
            [
              -76.62307236818269,
              8.498748938568871
            ],
            [
              -76.62352635933837,
              8.499495111917641
            ],
            [
              -76.62372988262301,
              8.5002423295245
            ],
            [
              -76.62388436292785,
              8.501239106062362
            ],
            [
              -76.62408809881349,
              8.502036192896343
            ],
            [
              -76.62429078500186,
              8.502583928604416
            ],
            [
              -76.62464753710368,
              8.504028700356713
            ],
            [
              -76.6245513407247,
              8.50497665202927
            ],
            [
              -76.62400324207844,
              8.505677135283312
            ],
            [
              -76.62365383995251,
              8.505977820060274
            ],
            [
              -76.62310384891998,
              8.506229470706044
            ],
            [
              -76.62215142131434,
              8.506083830449755
            ],
            [
              -76.6219493642226,
              8.505685703945632
            ],
            [
              -76.62124657100487,
              8.5053395355297
            ],
            [
              -76.62119878308927,
              8.505888317263521
            ],
            [
              -76.62115162476645,
              8.506586709916858
            ],
            [
              -76.62165341091652,
              8.506784102325511
            ],
            [
              -76.62220571147539,
              8.50708102562473
            ],
            [
              -76.62205878628548,
              8.507879576548495
            ],
            [
              -76.6219129088621,
              8.508927477998544
            ],
            [
              -76.62186554225491,
              8.509576000032057
            ],
            [
              -76.62116714730492,
              8.510277106868857
            ],
            [
              -76.62021743517754,
              8.510779778332825
            ],
            [
              -76.61896693720969,
              8.511233827623528
            ],
            [
              -76.61786546567478,
              8.511388026994668
            ],
            [
              -76.61736513910763,
              8.511539722137936
            ],
            [
              -76.61691511683617,
              8.511741079024166
            ],
            [
              -76.6163171094773,
              8.51249163450933
            ],
            [
              -76.61606809449049,
              8.512841767850544
            ],
            [
              -76.61526593709954,
              8.512695488936396
            ],
            [
              -76.61441242819431,
              8.512250193135921
            ],
            [
              -76.61396114985732,
              8.512152324412932
            ]
          ]
        ]
      }
    }
  ]
}
