{
  "type": "FeatureCollection",
  "features": [
    {
      "id": "22",
      "type": "Feature",
      "properties": {
        "nombre": "San Rafael",
        "area_ha": 0.0,
        "Shape_Leng": 6775.89675268,
        "Shape_Area": 1491757.01998
      },
      "geometry": {
        "type": "Polygon",
        "coordinates": [
          [
            [
              -76.63322369677836,
              8.379863601899205
            ],
            [
              -76.63213226292115,
              8.380160409108358
            ],
            [
              -76.63173822962482,
              8.381138990128822
            ],
            [
              -76.63128501262285,
              8.381946066889688
            ],
            [
              -76.63001016486184,
              8.381097557213831
            ],
            [
              -76.62971532161983,
              8.380354719474093
            ],
            [
              -76.62907550545646,
              8.379672406683593
            ],
            [
              -76.6283322306162,
              8.380252751086712
            ],
            [
              -76.62816054197535,
              8.38036903153089
            ],
            [
              -76.62769028888303,
              8.379341053719507
            ],
            [
              -76.62692679928641,
              8.377742267260876
            ],
            [
              -76.62680046410316,
              8.376539071063593
            ],
            [
              -76.62707828140124,
              8.375446859829479
            ],
            [
              -76.62833129681678,
              8.373944228994878
            ],
            [
              -76.62878026493296,
              8.372678393806476
            ],
            [
              -76.62796452917323,
              8.371653589646437
            ],
            [
              -76.62743405673832,
              8.370339408168542
            ],
            [
              -76.62736425234047,
              8.36902099157529
            ],
            [
              -76.62879744400256,
              8.368319615620393
            ],
            [
              -76.63006532496189,
              8.368422660277206
            ],
            [
              -76.62958446554462,
              8.366247773169043
            ],
            [
              -76.62888656978377,
              8.365508633712595
            ],
            [
              -76.62928114381857,
              8.364587403851987
            ],
            [
              -76.63055220083156,
              8.36503452305334
            ],
            [
              -76.63130395658246,
              8.365371712405562
            ],
            [
              -76.6320007910904,
              8.365996154700264
            ],
            [
              -76.63276052954376,
              8.367193517000123
            ],
            [
              -76.63334220453434,
              8.367819014176307
            ],
            [
              -76.6339073835992,
              8.36666681382658
            ],
            [
              -76.63454930194014,
              8.367578504209627
            ],
            [
              -76.6339308009894,
              8.369189995655024
            ],
            [
              -76.63435038297435,
              8.370963980422914
            ],
            [
              -76.63537249094415,
              8.369406120764866
            ],
            [
              -76.63600163674666,
              8.368941527353076
            ],
            [
              -76.63715807601062,
              8.369447021380225
            ],
            [
              -76.63624901105585,
              8.370774442464013
            ],
            [
              -76.63539272948942,
              8.371585229119393
            ],
            [
              -76.63500083590492,
              8.372793185994597
            ],
            [
              -76.6355777310311,
              8.372902571265577
            ],
            [
              -76.6367821738276,
              8.372375322858968
            ],
            [
              -76.63736066670847,
              8.37265673968686
            ],
            [
              -76.63771842404871,
              8.373972484986178
            ],
            [
              -76.63795622117502,
              8.37477318817208
            ],
            [
              -76.63877145088614,
              8.375740612925185
            ],
            [
              -76.63900284972681,
              8.37585317716568
            ],
            [
              -76.63883916983818,
              8.37682963091137
            ],
            [
              -76.638617372412,
              8.377749271629165
            ],
            [
              -76.63844942427143,
              8.37826696894481
            ],
            [
              -76.63787945768178,
              8.378903073947093
            ],
            [
              -76.6367347177027,
              8.379659181295185
            ],
            [
              -76.6365043829011,
              8.379661305900678
            ],
            [
              -76.63546467370385,
              8.37932679525191
            ],
            [
              -76.63396642693695,
              8.37922590765392
            ],
            [
              -76.63322369677836,
              8.379863601899205
            ]
          ]
        ]
      }
    }
  ]
}
