{
  "type": "FeatureCollection",
  "features": [
    {
      "id": "7",
      "type": "Feature",
      "properties": {
        "nombre": "Santa Rosa de los Palmares",
        "area_ha": 225.01,
        "Shape_Leng": 6502.3137624,
        "Shape_Area": 2255025.43473
      },
      "geometry": {
        "type": "Polygon",
        "coordinates": [
          [
            [
              -76.54540803051319,
              8.50678280504851
            ],
            [
              -76.54530543777697,
              8.506184736842929
            ],
            [
              -76.54490346652062,
              8.505887097100727
            ],
            [
              -76.5439027335076,
              8.50619030787626
            ],
            [
              -76.5430045883674,
              8.507091584322529
            ],
            [
              -76.54335207082765,
              8.50629223786417
            ],
            [
              -76.54369835435394,
              8.505193660057326
            ],
            [
              -76.54384544833219,
              8.50439510987265
            ],
            [
              -76.54359217188711,
              8.503697893345045
            ],
            [
              -76.54358917769395,
              8.502949811935503
            ],
            [
              -76.5441376400062,
              8.502299287837811
            ],
            [
              -76.54458650727625,
              8.501798777555251
            ],
            [
              -76.54458471008047,
              8.501349928253752
            ],
            [
              -76.54403145860594,
              8.500803521463816
            ],
            [
              -76.54397856869198,
              8.500105510334736
            ],
            [
              -76.54482820023985,
              8.499603410281987
            ],
            [
              -76.54582791627911,
              8.499050839633336
            ],
            [
              -76.54627737650893,
              8.498699943866006
            ],
            [
              -76.54662644726216,
              8.498299575039313
            ],
            [
              -76.54687532554152,
              8.497899604102773
            ],
            [
              -76.54722359382447,
              8.497299746141366
            ],
            [
              -76.54807421454925,
              8.497047001016181
            ],
            [
              -76.54887573938436,
              8.497043813495658
            ],
            [
              -76.54917571087967,
              8.496893002098973
            ],
            [
              -76.54982554699542,
              8.496541305920456
            ],
            [
              -76.55027480085805,
              8.49614053671989
            ],
            [
              -76.55122560626097,
              8.495887386158271
            ],
            [
              -76.5520267260789,
              8.495784448602132
            ],
            [
              -76.55237438309457,
              8.495034971505682
            ],
            [
              -76.55292281869735,
              8.494384440079529
            ],
            [
              -76.55377182160731,
              8.493732709241716
            ],
            [
              -76.55517246512395,
              8.493228392958466
            ],
            [
              -76.55582248977582,
              8.492926561711894
            ],
            [
              -76.5562717327196,
              8.492525785283227
            ],
            [
              -76.55707223993181,
              8.49227322471652
            ],
            [
              -76.55717343397453,
              8.49252218292039
            ],
            [
              -76.55742652152004,
              8.49316951540005
            ],
            [
              -76.55777758552243,
              8.493267857408473
            ],
            [
              -76.55923133452234,
              8.493511404213125
            ],
            [
              -76.55948321784946,
              8.493859504271017
            ],
            [
              -76.56008697283447,
              8.494505430566866
            ],
            [
              -76.56028896391814,
              8.494903602261775
            ],
            [
              -76.56099331576274,
              8.495648868318291
            ],
            [
              -76.56094826254166,
              8.496895862064354
            ],
            [
              -76.5612017638268,
              8.497642934412871
            ],
            [
              -76.56190632535123,
              8.498438069470252
            ],
            [
              -76.56191197727628,
              8.499834475841268
            ],
            [
              -76.56161423235021,
              8.500533886851674
            ],
            [
              -76.56056545495389,
              8.501336053522712
            ],
            [
              -76.56006651624837,
              8.501836779429889
            ],
            [
              -76.5596663561796,
              8.50198800161599
            ],
            [
              -76.55921670351498,
              8.502289038522317
            ],
            [
              -76.55876705274913,
              8.50259007516795
            ],
            [
              -76.55806913835377,
              8.503440704708582
            ],
            [
              -76.557970355143,
              8.503790206843963
            ],
            [
              -76.55757200527195,
              8.504390274614092
            ],
            [
              -76.55742393270778,
              8.504939466716891
            ],
            [
              -76.5570754755871,
              8.505489458942712
            ],
            [
              -76.55582729699893,
              8.50654177870322
            ],
            [
              -76.55524117178902,
              8.506825614031914
            ],
            [
              -76.55357718105995,
              8.507598097868195
            ],
            [
              -76.55267624723876,
              8.507801187040737
            ],
            [
              -76.55172099898662,
              8.506957163210899
            ],
            [
              -76.55131942348466,
              8.506759273455268
            ],
            [
              -76.5511511663826,
              8.506616859300804
            ],
            [
              -76.55088315524844,
              8.506918737621065
            ],
            [
              -76.55010429132946,
              8.507622049023858
            ],
            [
              -76.5493592906466,
              8.50792346829294
            ],
            [
              -76.5488852000982,
              8.50809092328741
            ],
            [
              -76.54834338080767,
              8.508358851574151
            ],
            [
              -76.54797088133738,
              8.508492814841619
            ],
            [
              -76.5475983810149,
              8.508492815084074
            ],
            [
              -76.54695497218296,
              8.508191396308561
            ],
            [
              -76.5463123705512,
              8.507427558202952
            ],
            [
              -76.54540803051319,
              8.50678280504851
            ]
          ]
        ]
      }
    }
  ]
}
