{
  "type": "FeatureCollection",
  "features": [
    {
      "id": "18",
      "type": "Feature",
      "properties": {
        "FID_Flujo": -1,
        "Nombre": "Cienaguita",
        "Area": 0.73505055508,
        "Name": null,
        "Shape_Leng": 0.0,
        "Shape_Area": 0.0,
        "FID_Domos": 1,
        "Shape_Le_1": 626.710874426,
        "Shape_Ar_1": 7573.31799012,
        "Nombre_1": null
      },
      "geometry": {
        "type": "Polygon",
        "coordinates": [
          [
            [
              -76.44786164180174,
              8.75844136862596,
              0.0
            ],
            [
              -76.44781201796715,
              8.758416846481365,
              0.0
            ],
            [
              -76.44773758266433,
              8.758416846481365,
              0.0
            ],
            [
              -76.44768795882976,
              8.758409839646681,
              0.0
            ],
            [
              -76.44767023686579,
              8.758371304717256,
              0.0
            ],
            [
              -76.4476525140036,
              8.758329266365665,
              0.0
            ],
            [
              -76.44764542449934,
              8.758276717753638,
              0.0
            ],
            [
              -76.4476525140036,
              8.758248692179308,
              0.0
            ],
            [
              -76.44770568169201,
              8.758234679391352,
              0.0
            ],
            [
              -76.44775176077447,
              8.758287228009317,
              0.0
            ],
            [
              -76.44780138460914,
              8.75829773737688,
              0.0
            ],
            [
              -76.44784037418736,
              8.758287228009317,
              0.0
            ],
            [
              -76.4478580970496,
              8.758269711804134,
              0.0
            ],
            [
              -76.44783328558145,
              8.758245189648221,
              0.0
            ],
            [
              -76.4478155627192,
              8.758213660652368,
              0.0
            ],
            [
              -76.4478368294353,
              8.758161112024009,
              0.0
            ],
            [
              -76.4478580970496,
              8.758129583020967,
              0.0
            ],
            [
              -76.44780138460914,
              8.758115570228526,
              0.0
            ],
            [
              -76.44772694930633,
              8.758129583020967,
              0.0
            ],
            [
              -76.44768795882976,
              8.75811206769618,
              0.0
            ],
            [
              -76.44770922644415,
              8.758059519053525,
              0.0
            ],
            [
              -76.4477446721686,
              8.758024487508706,
              0.0
            ],
            [
              -76.44771277119621,
              8.757989455072826,
              0.0
            ],
            [
              -76.44765605785736,
              8.75794391325632,
              0.0
            ],
            [
              -76.44762415778332,
              8.757957926055234,
              0.0
            ],
            [
              -76.44754263297634,
              8.757954422633585,
              0.0
            ],
            [
              -76.44748592053587,
              8.757936907300607,
              0.0
            ],
            [
              -76.4474256633432,
              8.75789136547767,
              0.0
            ],
            [
              -76.44739376237087,
              8.7578983714343,
              0.0
            ],
            [
              -76.44735477279251,
              8.757933403878761,
              0.0
            ],
            [
              -76.4472838822419,
              8.757933403878761,
              0.0
            ],
            [
              -76.44721299079295,
              8.757908881700672,
              0.0
            ],
            [
              -76.44721299079295,
              8.757880855210802,
              0.0
            ],
            [
              -76.44726615937965,
              8.757856333029247,
              0.0
            ],
            [
              -76.44723425840732,
              8.757814294619447,
              0.0
            ],
            [
              -76.44720944693917,
              8.75776174682248,
              0.0
            ],
            [
              -76.44723780315937,
              8.757744230592607,
              0.0
            ],
            [
              -76.4472838822419,
              8.75776174682248,
              0.0
            ],
            [
              -76.44733704993033,
              8.757793274968881,
              0.0
            ],
            [
              -76.44737958426066,
              8.757793274968881,
              0.0
            ],
            [
              -76.44741502998518,
              8.75778626901033,
              0.0
            ],
            [
              -76.44743275284743,
              8.757737223745249,
              0.0
            ],
            [
              -76.44746465292148,
              8.757716204978154,
              0.0
            ],
            [
              -76.44748592053587,
              8.757744230592607,
              0.0
            ],
            [
              -76.44754617772847,
              8.757747734016235,
              0.0
            ],
            [
              -76.44754972248059,
              8.757712701554228,
              0.0
            ],
            [
              -76.44752136626032,
              8.757684675937455,
              0.0
            ],
            [
              -76.44754972248059,
              8.757635630658978,
              0.0
            ],
            [
              -76.44751782150819,
              8.75757957941159,
              0.0
            ],
            [
              -76.44751782150819,
              8.757527031581464,
              0.0
            ],
            [
              -76.44748946528793,
              8.757460470039021,
              0.0
            ],
            [
              -76.44749301004005,
              8.757407922192064,
              0.0
            ],
            [
              -76.44752136626032,
              8.75737989655227,
              0.0
            ],
            [
              -76.44755681108647,
              8.757358876877094,
              0.0
            ],
            [
              -76.44759934541688,
              8.757351870910362,
              0.0
            ],
            [
              -76.44763479114134,
              8.757362380304354,
              0.0
            ],
            [
              -76.44771277119621,
              8.757348367483003,
              0.0
            ],
            [
              -76.44774821602236,
              8.75736588373158,
              0.0
            ],
            [
              -76.44778366174687,
              8.75739040594547,
              0.0
            ],
            [
              -76.44779429510487,
              8.75739741279936,
              0.0
            ],
            [
              -76.44787581991186,
              8.757474482856146,
              0.0
            ],
            [
              -76.44791126473802,
              8.757506011914664,
              0.0
            ],
            [
              -76.44796088857261,
              8.757537540970565,
              0.0
            ],
            [
              -76.44797861143488,
              8.757562063173136,
              0.0
            ],
            [
              -76.44801051240728,
              8.75760410161145,
              0.0
            ],
            [
              -76.44804950198555,
              8.75764263750825,
              0.0
            ],
            [
              -76.44808140295788,
              8.75759709564928,
              0.0
            ],
            [
              -76.44808849156375,
              8.757520024730072,
              0.0
            ],
            [
              -76.44812039253615,
              8.757537540970565,
              0.0
            ],
            [
              -76.44815229350857,
              8.757565566598483,
              0.0
            ],
            [
              -76.44816647161868,
              8.75759709564928,
              0.0
            ],
            [
              -76.44814166015054,
              8.757635630658978,
              0.0
            ],
            [
              -76.44816647161868,
              8.757663656279506,
              0.0
            ],
            [
              -76.44819837259102,
              8.757618114423105,
              0.0
            ],
            [
              -76.4482373621693,
              8.757583082836769,
              0.0
            ],
            [
              -76.44825862978368,
              8.757520024730072,
              0.0
            ],
            [
              -76.4482692631417,
              8.757460470039021,
              0.0
            ],
            [
              -76.44829407460983,
              8.75739741279936,
              0.0
            ],
            [
              -76.44830116411403,
              8.757481489708393,
              0.0
            ],
            [
              -76.44827989649973,
              8.757520024730072,
              0.0
            ],
            [
              -76.44828344125183,
              8.757583082836769,
              0.0
            ],
            [
              -76.44826217453574,
              8.757628624697459,
              0.0
            ],
            [
              -76.44829053075603,
              8.757698688746075,
              0.0
            ],
            [
              -76.44829053075603,
              8.75776174682248,
              0.0
            ],
            [
              -76.44830825271997,
              8.757793274968881,
              0.0
            ],
            [
              -76.4483295203343,
              8.757863339874362,
              0.0
            ],
            [
              -76.44838977752697,
              8.757926397035028,
              0.0
            ],
            [
              -76.44837559941683,
              8.757985951651476,
              0.0
            ],
            [
              -76.44833306508643,
              8.758031493462768,
              0.0
            ],
            [
              -76.44830116411403,
              8.758094551482808,
              0.0
            ],
            [
              -76.44827635264589,
              8.758094551482808,
              0.0
            ],
            [
              -76.4482373621693,
              8.75804550625844,
              0.0
            ],
            [
              -76.44821609545328,
              8.758031493462768,
              0.0
            ],
            [
              -76.44818419448089,
              8.758066525894751,
              0.0
            ],
            [
              -76.44812393728829,
              8.758136589860936,
              0.0
            ],
            [
              -76.44807076870157,
              8.758168118863319,
              0.0
            ],
            [
              -76.44800342290301,
              8.758168118863319,
              0.0
            ],
            [
              -76.44799278954501,
              8.758196144443719,
              0.0
            ],
            [
              -76.44799278954501,
              8.75823117686019,
              0.0
            ],
            [
              -76.4479892447929,
              8.758262704966679,
              0.0
            ],
            [
              -76.44799278954501,
              8.758318756998992,
              0.0
            ],
            [
              -76.4479998781509,
              8.75835729193392,
              0.0
            ],
            [
              -76.44799633339878,
              8.758399330282288,
              0.0
            ],
            [
              -76.44801051240728,
              8.758448375460052,
              0.0
            ],
            [
              -76.44793607710447,
              8.758469394185772,
              0.0
            ],
            [
              -76.44787936376562,
              8.75850442657644,
              0.0
            ],
            [
              -76.44786164180174,
              8.75844136862596,
              0.0
            ]
          ]
        ]
      }
    }
  ]
}
