{
  "type": "FeatureCollection",
  "features": [
    {
      "id": "15",
      "type": "Feature",
      "properties": {
        "FID_Flujo": 15,
        "Nombre": "El Aburrido",
        "Area": 11.708471857,
        "Name": null,
        "Shape_Leng": 5376.41665908,
        "Shape_Area": 120374.319994,
        "FID_Domos": -1,
        "Shape_Le_1": 0.0,
        "Shape_Ar_1": 0.0,
        "Nombre_1": null
      },
      "geometry": {
        "type": "Polygon",
        "coordinates": [
          [
            [
              -76.46756901186215,
              8.346289197811442,
              0.0
            ],
            [
              -76.46730245027632,
              8.346113372475049,
              0.0
            ],
            [
              -76.46710050900043,
              8.346161324200917,
              0.0
            ],
            [
              -76.46693895687807,
              8.346081404061891,
              0.0
            ],
            [
              -76.46677740385739,
              8.3458256575518,
              0.0
            ],
            [
              -76.46653507522463,
              8.345561917871203,
              0.0
            ],
            [
              -76.46567076925884,
              8.34505042400318,
              0.0
            ],
            [
              -76.46507302487895,
              8.344810661077462,
              0.0
            ],
            [
              -76.46447528049899,
              8.344538929465285,
              0.0
            ],
            [
              -76.46412794330112,
              8.344395071894667,
              0.0
            ],
            [
              -76.4637482946008,
              8.34430715836564,
              0.0
            ],
            [
              -76.46303746400464,
              8.34422723695844,
              0.0
            ],
            [
              -76.46256896114299,
              8.34409137141742,
              0.0
            ],
            [
              -76.4608888151176,
              8.343803655004836,
              0.0
            ],
            [
              -76.46073534064624,
              8.34375570210068,
              0.0
            ],
            [
              -76.46036376959701,
              8.34366778842771,
              0.0
            ],
            [
              -76.46003258680288,
              8.34350794622413,
              0.0
            ],
            [
              -76.45924905734744,
              8.342924520159496,
              0.0
            ],
            [
              -76.4590551946209,
              8.342780661105598,
              0.0
            ],
            [
              -76.45888556394917,
              8.34264479506156,
              0.0
            ],
            [
              -76.45868362357162,
              8.342468967195932,
              0.0
            ],
            [
              -76.45850591524885,
              8.342205226137958,
              0.0
            ],
            [
              -76.45811011214478,
              8.34180561856606,
              0.0
            ],
            [
              -76.45790009411623,
              8.341669751294182,
              0.0
            ],
            [
              -76.45779508465276,
              8.341589830236202,
              0.0
            ],
            [
              -76.45756083367108,
              8.341533884863802,
              0.0
            ],
            [
              -76.45743966890552,
              8.341597822431659,
              0.0
            ],
            [
              -76.45748813481177,
              8.341885540468697,
              0.0
            ],
            [
              -76.45737504769728,
              8.341901523958436,
              0.0
            ],
            [
              -76.45711151792551,
              8.342016347665698,
              0.0
            ],
            [
              -76.45705194345248,
              8.342125305189558,
              0.0
            ],
            [
              -76.4571892626218,
              8.342436999373376,
              0.0
            ],
            [
              -76.45701155519731,
              8.342508928081424,
              0.0
            ],
            [
              -76.4568176915725,
              8.342492943727683,
              0.0
            ],
            [
              -76.45659959589285,
              8.342429007195145,
              0.0
            ],
            [
              -76.45642996611946,
              8.34234908540373,
              0.0
            ],
            [
              -76.45630880135396,
              8.342149281742456,
              0.0
            ],
            [
              -76.45616340453363,
              8.341869556089454,
              0.0
            ],
            [
              -76.45617955983568,
              8.341613806821957,
              0.0
            ],
            [
              -76.45617955983568,
              8.341166244534492,
              0.0
            ],
            [
              -76.45617955983568,
              8.340862541547471,
              0.0
            ],
            [
              -76.45623610249457,
              8.340678721554657,
              0.0
            ],
            [
              -76.45631687900497,
              8.34057482275729,
              0.0
            ],
            [
              -76.45649458732775,
              8.340391002629085,
              0.0
            ],
            [
              -76.45668845005426,
              8.340199190190704,
              0.0
            ],
            [
              -76.45677730421562,
              8.340071314586876,
              0.0
            ],
            [
              -76.45689039043181,
              8.339871509761004,
              0.0
            ],
            [
              -76.4571084861114,
              8.339663711709346,
              0.0
            ],
            [
              -76.45728619443416,
              8.339639735892808,
              0.0
            ],
            [
              -76.4576900751893,
              8.339839540837165,
              0.0
            ],
            [
              -76.45794048147305,
              8.340079306813326,
              0.0
            ],
            [
              -76.45780316230379,
              8.340239150419512,
              0.0
            ],
            [
              -76.45778700700176,
              8.340414979288393,
              0.0
            ],
            [
              -76.45785162820997,
              8.34066273712611,
              0.0
            ],
            [
              -76.45803512347982,
              8.340669315237594,
              0.0
            ],
            [
              -76.45835383047131,
              8.34068074005093,
              0.0
            ],
            [
              -76.45896634045955,
              8.340702698196313,
              0.0
            ],
            [
              -76.45918443613913,
              8.340902502597245,
              0.0
            ],
            [
              -76.45924664177763,
              8.341073275599713,
              0.0
            ],
            [
              -76.46035763679858,
              8.341400229751033,
              0.0
            ],
            [
              -76.46100190223207,
              8.341589830236202,
              0.0
            ],
            [
              -76.46244779727579,
              8.341613806821957,
              0.0
            ],
            [
              -76.46326363733533,
              8.341398017497443,
              0.0
            ],
            [
              -76.46422487421519,
              8.341286127578442,
              0.0
            ],
            [
              -76.46488723980343,
              8.341254158770264,
              0.0
            ],
            [
              -76.46540457418568,
              8.341403101503195,
              0.0
            ],
            [
              -76.46567884690992,
              8.341429986293736,
              0.0
            ],
            [
              -76.46589559511658,
              8.341561673566956,
              0.0
            ],
            [
              -76.46616690699368,
              8.341591993604077,
              0.0
            ],
            [
              -76.4666481623391,
              8.341645774711862,
              0.0
            ],
            [
              -76.46692280157602,
              8.341901523958436,
              0.0
            ],
            [
              -76.46682586976357,
              8.341989438028785,
              0.0
            ],
            [
              -76.46661585173496,
              8.342061367708013,
              0.0
            ],
            [
              -76.4662846689409,
              8.341989438028785,
              0.0
            ],
            [
              -76.46588078818574,
              8.341861563899617,
              0.0
            ],
            [
              -76.46554152774061,
              8.341677743487946,
              0.0
            ],
            [
              -76.46513764608716,
              8.3415258926671,
              0.0
            ],
            [
              -76.46470953237896,
              8.341421994094906,
              0.0
            ],
            [
              -76.4643621942828,
              8.341421994094906,
              0.0
            ],
            [
              -76.4638209934601,
              8.341533884863802,
              0.0
            ],
            [
              -76.46326363733533,
              8.341669751294182,
              0.0
            ],
            [
              -76.46288398863501,
              8.341949477090163,
              0.0
            ],
            [
              -76.46267397060639,
              8.341949477090163,
              0.0
            ],
            [
              -76.46240740902061,
              8.341829595138574,
              0.0
            ],
            [
              -76.46180158698964,
              8.34182160294792,
              0.0
            ],
            [
              -76.46124423086485,
              8.34182160294792,
              0.0
            ],
            [
              -76.46084842686243,
              8.3418136107571,
              0.0
            ],
            [
              -76.46042839080523,
              8.3416617591002,
              0.0
            ],
            [
              -76.46003258680288,
              8.341493923878593,
              0.0
            ],
            [
              -76.45932070877114,
              8.341466737785195,
              0.0
            ],
            [
              -76.45953576724676,
              8.341669700631918,
              0.0
            ],
            [
              -76.4595787794809,
              8.341794096905192,
              0.0
            ],
            [
              -76.45952584176123,
              8.341898852192326,
              0.0
            ],
            [
              -76.45912881066015,
              8.341944681955018,
              0.0
            ],
            [
              -76.45888397393112,
              8.342019974902568,
              0.0
            ],
            [
              -76.4588508880809,
              8.342213116107583,
              0.0
            ],
            [
              -76.45894683803475,
              8.342491371423332,
              0.0
            ],
            [
              -76.45952253326604,
              8.342933305145017,
              0.0
            ],
            [
              -76.46001551432092,
              8.342982409157267,
              0.0
            ],
            [
              -76.46031990486163,
              8.343218106908154,
              0.0
            ],
            [
              -76.46079965103749,
              8.343574926744973,
              0.0
            ],
            [
              -76.46284105455427,
              8.344013585767522,
              0.0
            ],
            [
              -76.46420419589569,
              8.344334395812162,
              0.0
            ],
            [
              -76.46467446304864,
              8.344467089122764,
              0.0
            ],
            [
              -76.46503263662377,
              8.344666803606975,
              0.0
            ],
            [
              -76.4653455252271,
              8.344714551974228,
              0.0
            ],
            [
              -76.46558311614501,
              8.344843011780505,
              0.0
            ],
            [
              -76.46584847758162,
              8.344986487889146,
              0.0
            ],
            [
              -76.46613644871564,
              8.34495474336244,
              0.0
            ],
            [
              -76.46659831302736,
              8.345194013802539,
              0.0
            ],
            [
              -76.46680961474853,
              8.345303478835662,
              0.0
            ],
            [
              -76.46692280157602,
              8.345362115853156,
              0.0
            ],
            [
              -76.46707627604731,
              8.345673807454395,
              0.0
            ],
            [
              -76.4671408972556,
              8.345801681224543,
              0.0
            ],
            [
              -76.46730788688039,
              8.34576124338904,
              0.0
            ],
            [
              -76.46754280620867,
              8.345887903027043,
              0.0
            ],
            [
              -76.46773864163555,
              8.34599349091242,
              0.0
            ],
            [
              -76.46774671928658,
              8.346185300506095,
              0.0
            ],
            [
              -76.46778710754175,
              8.346409078394458,
              0.0
            ],
            [
              -76.4677709522397,
              8.346536951923799,
              0.0
            ],
            [
              -76.46767402042727,
              8.346504983545376,
              0.0
            ],
            [
              -76.46756901186215,
              8.346289197811442,
              0.0
            ]
          ]
        ]
      }
    }
  ]
}
