{
  "type": "FeatureCollection",
  "features": [
    {
      "id": "29",
      "type": "Feature",
      "properties": {
        "FID_Flujo": -1,
        "Nombre": "Las Changas",
        "Area": 0.02035002003,
        "Name": null,
        "Shape_Leng": 0.0,
        "Shape_Area": 0.0,
        "FID_Domos": 13,
        "Shape_Le_1": 72.6132112234,
        "Shape_Ar_1": 209.442003941,
        "Nombre_1": null
      },
      "geometry": {
        "type": "Polygon",
        "coordinates": [
          [
            [
              -76.57598323936175,
              8.551502589987841,
              0.0
            ],
            [
              -76.57596528742909,
              8.551501406734502,
              0.0
            ],
            [
              -76.57595331827628,
              8.551501406734502,
              0.0
            ],
            [
              -76.57593955518779,
              8.551496081205947,
              0.0
            ],
            [
              -76.57592998004517,
              8.55149963096612,
              0.0
            ],
            [
              -76.57591681523463,
              8.551494305437538,
              0.0
            ],
            [
              -76.57590484608181,
              8.551494897064279,
              0.0
            ],
            [
              -76.57588988553913,
              8.551496672832682,
              0.0
            ],
            [
              -76.5758803112948,
              8.55149963096612,
              0.0
            ],
            [
              -76.57587133443015,
              8.551495488690955,
              0.0
            ],
            [
              -76.57586774386394,
              8.551491938042435,
              0.0
            ],
            [
              -76.5758641532978,
              8.5514872041405,
              0.0
            ],
            [
              -76.57586834304027,
              8.551484245118601,
              0.0
            ],
            [
              -76.5758701378742,
              8.551477143821373,
              0.0
            ],
            [
              -76.57586475247406,
              8.551473593172682,
              0.0
            ],
            [
              -76.5758605627316,
              8.551463533741504,
              0.0
            ],
            [
              -76.57586475247406,
              8.551458207324112,
              0.0
            ],
            [
              -76.57587253188443,
              8.551457615697373,
              0.0
            ],
            [
              -76.57588330358304,
              8.551457615697373,
              0.0
            ],
            [
              -76.57588749242721,
              8.551461757972946,
              0.0
            ],
            [
              -76.57589467355953,
              8.551462349599678,
              0.0
            ],
            [
              -76.57590544525814,
              8.551458798950847,
              0.0
            ],
            [
              -76.57591442122445,
              8.551458207324112,
              0.0
            ],
            [
              -76.57591681523463,
              8.551453473421756,
              0.0
            ],
            [
              -76.57591861006861,
              8.551445188870325,
              0.0
            ],
            [
              -76.57592399546876,
              8.55144045407944,
              0.0
            ],
            [
              -76.57592519292305,
              8.551425659856376,
              0.0
            ],
            [
              -76.57592878348919,
              8.551419742699965,
              0.0
            ],
            [
              -76.57593596462159,
              8.551418558558,
              0.0
            ],
            [
              -76.5759455388659,
              8.551412641401479,
              0.0
            ],
            [
              -76.57595032688633,
              8.551403764334088,
              0.0
            ],
            [
              -76.57596169686289,
              8.551394296527905,
              0.0
            ],
            [
              -76.5759587045747,
              8.551388378482697,
              0.0
            ],
            [
              -76.57596049940861,
              8.551381277183685,
              0.0
            ],
            [
              -76.57596768054101,
              8.551377134907236,
              0.0
            ],
            [
              -76.57597605822934,
              8.551377134907236,
              0.0
            ],
            [
              -76.57598264108378,
              8.551381277183685,
              0.0
            ],
            [
              -76.5759886256602,
              8.551384827833179,
              0.0
            ],
            [
              -76.57599520851457,
              8.551388970109544,
              0.0
            ],
            [
              -76.57600418448094,
              8.551388970109544,
              0.0
            ],
            [
              -76.57601615273539,
              8.551386603602097,
              0.0
            ],
            [
              -76.57602153903385,
              8.551393113274232,
              0.0
            ],
            [
              -76.57602991672218,
              8.551403172707264,
              0.0
            ],
            [
              -76.5760394909665,
              8.551420925953558,
              0.0
            ],
            [
              -76.57604727127516,
              8.551425659856376,
              0.0
            ],
            [
              -76.57605205839735,
              8.551419742699965,
              0.0
            ],
            [
              -76.57605864125172,
              8.551407314983432,
              0.0
            ],
            [
              -76.57606342837391,
              8.55140849912537,
              0.0
            ],
            [
              -76.57606941205198,
              8.55141204977467,
              0.0
            ],
            [
              -76.5760795854726,
              8.551422109207206,
              0.0
            ],
            [
              -76.57608437349303,
              8.55143512855009,
              0.0
            ],
            [
              -76.5760807829269,
              8.551447555377406,
              0.0
            ],
            [
              -76.57607120778422,
              8.551460574719421,
              0.0
            ],
            [
              -76.57606402665186,
              8.551471226665761,
              0.0
            ],
            [
              -76.57605086184137,
              8.551475960567897,
              0.0
            ],
            [
              -76.57603889268854,
              8.551481286985045,
              0.0
            ],
            [
              -76.57602872016625,
              8.551491346415752,
              0.0
            ],
            [
              -76.57602752271197,
              8.551496672832682,
              0.0
            ],
            [
              -76.57603231073244,
              8.551508508031274,
              0.0
            ],
            [
              -76.576026924434,
              8.551515609327975,
              0.0
            ],
            [
              -76.5760143579015,
              8.551515609327975,
              0.0
            ],
            [
              -76.57601375962346,
              8.55150969128465,
              0.0
            ],
            [
              -76.57600597931481,
              8.551505549009597,
              0.0
            ],
            [
              -76.57599520851457,
              8.55150436575621,
              0.0
            ],
            [
              -76.57598323936175,
              8.551502589987841,
              0.0
            ]
          ]
        ]
      }
    }
  ]
}
