{
  "type": "FeatureCollection",
  "features": [
    {
      "id": "14",
      "type": "Feature",
      "properties": {
        "FID_Flujo": 14,
        "Nombre": "Las Platas",
        "Area": 8.51098697595,
        "Name": null,
        "Shape_Leng": 3474.19629406,
        "Shape_Area": 87595.543173,
        "FID_Domos": -1,
        "Shape_Le_1": 0.0,
        "Shape_Ar_1": 0.0,
        "Nombre_1": null
      },
      "geometry": {
        "type": "Polygon",
        "coordinates": [
          [
            [
              -76.46097974348899,
              8.55651942153259,
              0.0
            ],
            [
              -76.46102458379475,
              8.556204601980363,
              0.0
            ],
            [
              -76.46116358730514,
              8.555965161283009,
              0.0
            ],
            [
              -76.46128913854423,
              8.555721285949135,
              0.0
            ],
            [
              -76.46130707430717,
              8.555530620768518,
              0.0
            ],
            [
              -76.46131604218861,
              8.555109381461298,
              0.0
            ],
            [
              -76.46145953008896,
              8.554856638363944,
              0.0
            ],
            [
              -76.46145953008896,
              8.554776824532377,
              0.0
            ],
            [
              -76.46149540161493,
              8.554612763208551,
              0.0
            ],
            [
              -76.4615312740391,
              8.554408793969325,
              0.0
            ],
            [
              -76.46153250832434,
              8.554316044302203,
              0.0
            ],
            [
              -76.46126615784259,
              8.55381684088362,
              0.0
            ],
            [
              -76.46056553570138,
              8.553532780857356,
              0.0
            ],
            [
              -76.45993497496576,
              8.553976191775627,
              0.0
            ],
            [
              -76.45954262588397,
              8.554440387124874,
              0.0
            ],
            [
              -76.45909422731832,
              8.554766016334089,
              0.0
            ],
            [
              -76.45872990297846,
              8.555126287077726,
              0.0
            ],
            [
              -76.4585057041448,
              8.555410345915613,
              0.0
            ],
            [
              -76.45833054793572,
              8.555410345915613,
              0.0
            ],
            [
              -76.4582674915927,
              8.555250995623602,
              0.0
            ],
            [
              -76.45827449845193,
              8.55487686897518,
              0.0
            ],
            [
              -76.45843564184084,
              8.554523526901914,
              0.0
            ],
            [
              -76.45882799002435,
              8.55403854668613,
              0.0
            ],
            [
              -76.45928339544916,
              8.553858410842457,
              0.0
            ],
            [
              -76.45967574453097,
              8.553664418846871,
              0.0
            ],
            [
              -76.46006809271447,
              8.553387286745544,
              0.0
            ],
            [
              -76.46043241705439,
              8.553345716735294,
              0.0
            ],
            [
              -76.46081775927695,
              8.553248720619335,
              0.0
            ],
            [
              -76.46108399657099,
              8.553117082486176,
              0.0
            ],
            [
              -76.46123813310068,
              8.552812236903359,
              0.0
            ],
            [
              -76.46151137635559,
              8.552742953741944,
              0.0
            ],
            [
              -76.46175059681742,
              8.55269866627356,
              0.0
            ],
            [
              -76.46178237741557,
              8.55248438876224,
              0.0
            ],
            [
              -76.46177340953406,
              8.551788230086173,
              0.0
            ],
            [
              -76.46178686090715,
              8.551579825688718,
              0.0
            ],
            [
              -76.46180031317854,
              8.551131978330321,
              0.0
            ],
            [
              -76.46178237741557,
              8.550484592761652,
              0.0
            ],
            [
              -76.46171063346543,
              8.550382607939007,
              0.0
            ],
            [
              -76.46172408573679,
              8.550196372860132,
              0.0
            ],
            [
              -76.46178686090715,
              8.550063348763349,
              0.0
            ],
            [
              -76.46193483229906,
              8.549770694876315,
              0.0
            ],
            [
              -76.46210522384385,
              8.549398224917942,
              0.0
            ],
            [
              -76.46221732370985,
              8.549247463185758,
              0.0
            ],
            [
              -76.46235632722025,
              8.549034623723323,
              0.0
            ],
            [
              -76.462544654528,
              8.548671022181896,
              0.0
            ],
            [
              -76.46253120315498,
              8.548360629827688,
              0.0
            ],
            [
              -76.46249981512058,
              8.548085711156567,
              0.0
            ],
            [
              -76.46253120315498,
              8.54787730473448,
              0.0
            ],
            [
              -76.46257155907074,
              8.547651161655683,
              0.0
            ],
            [
              -76.4626657222755,
              8.547349636749674,
              0.0
            ],
            [
              -76.46278230653138,
              8.547398413611292,
              0.0
            ],
            [
              -76.46305134567079,
              8.547597951134204,
              0.0
            ],
            [
              -76.46326209313135,
              8.547793055751058,
              0.0
            ],
            [
              -76.46343248467613,
              8.548014764169949,
              0.0
            ],
            [
              -76.46345490393067,
              8.548369498082671,
              0.0
            ],
            [
              -76.46358493955962,
              8.548489220836927,
              0.0
            ],
            [
              -76.46349077635493,
              8.548702061492238,
              0.0
            ],
            [
              -76.4632217372155,
              8.548768573784027,
              0.0
            ],
            [
              -76.46317475891941,
              8.548885831284828,
              0.0
            ],
            [
              -76.46309549337543,
              8.548962473220431,
              0.0
            ],
            [
              -76.46297960172055,
              8.549074531242633,
              0.0
            ],
            [
              -76.46280024229432,
              8.549158779942816,
              0.0
            ],
            [
              -76.46257155907074,
              8.54924302951269,
              0.0
            ],
            [
              -76.46230251993138,
              8.549593327724923,
              0.0
            ],
            [
              -76.4620872880809,
              8.550032309563875,
              0.0
            ],
            [
              -76.4620110606391,
              8.55028505586169,
              0.0
            ],
            [
              -76.46204244867349,
              8.550679695900842,
              0.0
            ],
            [
              -76.46200657624922,
              8.551260568404475,
              0.0
            ],
            [
              -76.46202451291053,
              8.551535484785369,
              0.0
            ],
            [
              -76.46218145218388,
              8.551885781778662,
              0.0
            ],
            [
              -76.46217696779402,
              8.552125224151922,
              0.0
            ],
            [
              -76.4621514430635,
              8.552442126647376,
              0.0
            ],
            [
              -76.46210074035228,
              8.552581939388121,
              0.0
            ],
            [
              -76.46211996070605,
              8.552793797934646,
              0.0
            ],
            [
              -76.4620200285206,
              8.55308742932198,
              0.0
            ],
            [
              -76.46193284522565,
              8.55319316570303,
              0.0
            ],
            [
              -76.46187654062027,
              8.553353476245876,
              0.0
            ],
            [
              -76.46186679839103,
              8.553856649298226,
              0.0
            ],
            [
              -76.46180928106006,
              8.554036329433325,
              0.0
            ],
            [
              -76.46184066909436,
              8.55451521221436,
              0.0
            ],
            [
              -76.46191734120221,
              8.554667273252381,
              0.0
            ],
            [
              -76.4618849407665,
              8.554787309381707,
              0.0
            ],
            [
              -76.46184486602338,
              8.554935776166944,
              0.0
            ],
            [
              -76.46179778531933,
              8.555110197827279,
              0.0
            ],
            [
              -76.46171063346543,
              8.555433070897713,
              0.0
            ],
            [
              -76.46176444165263,
              8.555650341272646,
              0.0
            ],
            [
              -76.46179134529703,
              8.555841006393326,
              0.0
            ],
            [
              -76.46186308924717,
              8.555969594877846,
              0.0
            ],
            [
              -76.46206935231788,
              8.55598289743877,
              0.0
            ],
            [
              -76.4622442282526,
              8.556124788431287,
              0.0
            ],
            [
              -76.46249981512058,
              8.556209035572412,
              0.0
            ],
            [
              -76.46296614944919,
              8.556005068076365,
              0.0
            ],
            [
              -76.46303311076883,
              8.556120332630366,
              0.0
            ],
            [
              -76.46301547324651,
              8.556364228139975,
              0.0
            ],
            [
              -76.46293924580479,
              8.556435173571833,
              0.0
            ],
            [
              -76.46263881863104,
              8.556355360071079,
              0.0
            ],
            [
              -76.46221732370985,
              8.556381965165446,
              0.0
            ],
            [
              -76.4620872880809,
              8.556399701301734,
              0.0
            ],
            [
              -76.46176892514421,
              8.55659480052309,
              0.0
            ],
            [
              -76.46141469068161,
              8.556794334118084,
              0.0
            ],
            [
              -76.46119497533947,
              8.556763295467041,
              0.0
            ],
            [
              -76.46097974348899,
              8.55651942153259,
              0.0
            ]
          ]
        ]
      }
    }
  ]
}
