{
  "type": "FeatureCollection",
  "features": [
    {
      "id": "5",
      "type": "Feature",
      "properties": {
        "FID_Flujo": 5,
        "Nombre": "Palmares Cenizosa",
        "Area": 14.8118199669,
        "Name": null,
        "Shape_Leng": 2639.01515034,
        "Shape_Area": 152404.818792,
        "FID_Domos": -1,
        "Shape_Le_1": 0.0,
        "Shape_Ar_1": 0.0,
        "Nombre_1": null
      },
      "geometry": {
        "type": "Polygon",
        "coordinates": [
          [
            [
              -76.61082386046377,
              8.50255634802892,
              0.0
            ],
            [
              -76.6106682803414,
              8.502313885872756,
              0.0
            ],
            [
              -76.6106117053431,
              8.502206642827474,
              0.0
            ],
            [
              -76.61059756226732,
              8.502104062302143,
              0.0
            ],
            [
              -76.61058813265171,
              8.502010807739776,
              0.0
            ],
            [
              -76.61058341829316,
              8.501954854458468,
              0.0
            ],
            [
              -76.61051741457761,
              8.50188491351165,
              0.0
            ],
            [
              -76.61045141086214,
              8.501805647445194,
              0.0
            ],
            [
              -76.61033606448474,
              8.501700101185984,
              0.0
            ],
            [
              -76.61025811407426,
              8.50173104302835,
              0.0
            ],
            [
              -76.61028014435827,
              8.501843042046314,
              0.0
            ],
            [
              -76.61020625433291,
              8.501875588406474,
              0.0
            ],
            [
              -76.61015910895014,
              8.501842948759714,
              0.0
            ],
            [
              -76.61008367561912,
              8.501754356688027,
              0.0
            ],
            [
              -76.61004124549328,
              8.501661102040634,
              0.0
            ],
            [
              -76.61004595985189,
              8.50156318392571,
              0.0
            ],
            [
              -76.61007896126051,
              8.501451278112608,
              0.0
            ],
            [
              -76.61008367561912,
              8.501330047148443,
              0.0
            ],
            [
              -76.61018739600014,
              8.501171512992734,
              0.0
            ],
            [
              -76.61023454138287,
              8.501120223039198,
              0.0
            ],
            [
              -76.61032883304665,
              8.501087584216545,
              0.0
            ],
            [
              -76.61044198214489,
              8.501045619377376,
              0.0
            ],
            [
              -76.61052212893624,
              8.500985003391666,
              0.0
            ],
            [
              -76.61058813265171,
              8.500933712524747,
              0.0
            ],
            [
              -76.61059284790869,
              8.50087309740977,
              0.0
            ],
            [
              -76.6106069909845,
              8.500798492811422,
              0.0
            ],
            [
              -76.61069185303273,
              8.500733214220183,
              0.0
            ],
            [
              -76.6106304846241,
              8.500625762836119,
              0.0
            ],
            [
              -76.61051741457761,
              8.500625970732656,
              0.0
            ],
            [
              -76.61055041688455,
              8.50050473950742,
              0.0
            ],
            [
              -76.61059284790869,
              8.500448786006272,
              0.0
            ],
            [
              -76.6105645599604,
              8.500327554725008,
              0.0
            ],
            [
              -76.61061642060002,
              8.500276263770125,
              0.0
            ],
            [
              -76.61069185303273,
              8.500252950020492,
              0.0
            ],
            [
              -76.61074371277412,
              8.500262276053574,
              0.0
            ],
            [
              -76.61092758084477,
              8.500299577518277,
              0.0
            ],
            [
              -76.610908722512,
              8.500178346189887,
              0.0
            ],
            [
              -76.61091815122924,
              8.500075765121643,
              0.0
            ],
            [
              -76.61089457853785,
              8.500010486407337,
              0.0
            ],
            [
              -76.6107814294396,
              8.499903242717687,
              0.0
            ],
            [
              -76.61070599700687,
              8.49982863881897,
              0.0
            ],
            [
              -76.61059756226732,
              8.499740046281763,
              0.0
            ],
            [
              -76.6105645599604,
              8.499642127676141,
              0.0
            ],
            [
              -76.61059756226732,
              8.499539546464481,
              0.0
            ],
            [
              -76.61066356598279,
              8.499516232670048,
              0.0
            ],
            [
              -76.61078614379822,
              8.49952555872105,
              0.0
            ],
            [
              -76.61087572020509,
              8.499609488727703,
              0.0
            ],
            [
              -76.61103601558442,
              8.499768022640893,
              0.0
            ],
            [
              -76.61111144801713,
              8.499842626551347,
              0.0
            ],
            [
              -76.61124345544815,
              8.499935882529549,
              0.0
            ],
            [
              -76.61142260826189,
              8.499987172641541,
              0.0
            ],
            [
              -76.61156875966708,
              8.500005823831977,
              0.0
            ],
            [
              -76.61176205645495,
              8.499996497792656,
              0.0
            ],
            [
              -76.61183748888767,
              8.500038462746732,
              0.0
            ],
            [
              -76.61191292221868,
              8.500141043824897,
              0.0
            ],
            [
              -76.61195535324283,
              8.500164357581276,
              0.0
            ],
            [
              -76.61203078567556,
              8.500201659943999,
              0.0
            ],
            [
              -76.61213450605658,
              8.500290252374537,
              0.0
            ],
            [
              -76.61223351118068,
              8.500290252374537,
              0.0
            ],
            [
              -76.6123796625858,
              8.500257612592849,
              0.0
            ],
            [
              -76.61258710244954,
              8.500215647662761,
              0.0
            ],
            [
              -76.61266253578054,
              8.500215647662761,
              0.0
            ],
            [
              -76.61272382423911,
              8.500248287448082,
              0.0
            ],
            [
              -76.61285111731151,
              8.500355531041269,
              0.0
            ],
            [
              -76.61296426640978,
              8.500448786006272,
              0.0
            ],
            [
              -76.61305384281664,
              8.500621308164781,
              0.0
            ],
            [
              -76.61322828127174,
              8.500677261640808,
              0.0
            ],
            [
              -76.61323308366529,
              8.500753455693213,
              0.0
            ],
            [
              -76.61331314332,
              8.500812481396837,
              0.0
            ],
            [
              -76.61333200165278,
              8.50096635224893,
              0.0
            ],
            [
              -76.61329900024421,
              8.501101571902982,
              0.0
            ],
            [
              -76.61330371460284,
              8.501162187870259,
              0.0
            ],
            [
              -76.61325656922006,
              8.501264768647662,
              0.0
            ],
            [
              -76.61319527986318,
              8.501395325638049,
              0.0
            ],
            [
              -76.61312616258694,
              8.501443842718846,
              0.0
            ],
            [
              -76.6131333805502,
              8.501525935002158,
              0.0
            ],
            [
              -76.61313870486488,
              8.501586497595657,
              0.0
            ],
            [
              -76.6131837715461,
              8.501645030972892,
              0.0
            ],
            [
              -76.61319527986318,
              8.501735705582666,
              0.0
            ],
            [
              -76.61315284883904,
              8.501819635105427,
              0.0
            ],
            [
              -76.61306327243217,
              8.501894239505027,
              0.0
            ],
            [
              -76.61295955205115,
              8.501982831544384,
              0.0
            ],
            [
              -76.61286526128566,
              8.502038783933182,
              0.0
            ],
            [
              -76.61290769230983,
              8.502160015561667,
              0.0
            ],
            [
              -76.61295955205115,
              8.502229956458281,
              0.0
            ],
            [
              -76.61290953655111,
              8.502302735916672,
              0.0
            ],
            [
              -76.61290297795121,
              8.502379164194862,
              0.0
            ],
            [
              -76.61284168859427,
              8.502421128888027,
              0.0
            ],
            [
              -76.61274268257188,
              8.502458431031132,
              0.0
            ],
            [
              -76.61266418688406,
              8.502503371997243,
              0.0
            ],
            [
              -76.61264839180639,
              8.502579661638455,
              0.0
            ],
            [
              -76.61254467142537,
              8.502644939915232,
              0.0
            ],
            [
              -76.61246452463405,
              8.502644939915232,
              0.0
            ],
            [
              -76.61239380566165,
              8.502640277371917,
              0.0
            ],
            [
              -76.6123372315617,
              8.50262162630967,
              0.0
            ],
            [
              -76.61227594220477,
              8.502574999094346,
              0.0
            ],
            [
              -76.61222408246344,
              8.502495732282124,
              0.0
            ],
            [
              -76.61214864913237,
              8.502481744646625,
              0.0
            ],
            [
              -76.61206732195474,
              8.502502033114776,
              0.0
            ],
            [
              -76.61201192734278,
              8.50260763779028,
              0.0
            ],
            [
              -76.6120449296497,
              8.502696229664737,
              0.0
            ],
            [
              -76.61208264541689,
              8.502775496435493,
              0.0
            ],
            [
              -76.61209678939103,
              8.502924703959623,
              0.0
            ],
            [
              -76.6120756457442,
              8.503107739701505,
              0.0
            ],
            [
              -76.6120449296497,
              8.503185816764997,
              0.0
            ],
            [
              -76.61206180450232,
              8.503281787003923,
              0.0
            ],
            [
              -76.61204021439274,
              8.503339686664239,
              0.0
            ],
            [
              -76.61207971151919,
              8.503410404730776,
              0.0
            ],
            [
              -76.61206516240482,
              8.503452061910743,
              0.0
            ],
            [
              -76.61204725359136,
              8.503503338225672,
              0.0
            ],
            [
              -76.61202135695831,
              8.503577485639505,
              0.0
            ],
            [
              -76.61206850234103,
              8.503675402351373,
              0.0
            ],
            [
              -76.61210150374966,
              8.503829272942456,
              0.0
            ],
            [
              -76.61213922041519,
              8.503941178061268,
              0.0
            ],
            [
              -76.61205597533441,
              8.503974004989908,
              0.0
            ],
            [
              -76.6120449296497,
              8.50401111863282,
              0.0
            ],
            [
              -76.61208311882906,
              8.504105454826496,
              0.0
            ],
            [
              -76.61204964400832,
              8.504225603683382,
              0.0
            ],
            [
              -76.61212036208242,
              8.504328182752472,
              0.0
            ],
            [
              -76.61216279310652,
              8.504379473165168,
              0.0
            ],
            [
              -76.6122220576608,
              8.50442201334702,
              0.0
            ],
            [
              -76.6122099384893,
              8.504477389672108,
              0.0
            ],
            [
              -76.61209207503242,
              8.504486715602393,
              0.0
            ],
            [
              -76.61202135695831,
              8.50453334258511,
              0.0
            ],
            [
              -76.61204930444512,
              8.504663973979188,
              0.0
            ],
            [
              -76.61203078567556,
              8.504738501419476,
              0.0
            ],
            [
              -76.61194120926869,
              8.50478046585434,
              0.0
            ],
            [
              -76.61198273299436,
              8.504822285469347,
              0.0
            ],
            [
              -76.61195535324283,
              8.504929672597791,
              0.0
            ],
            [
              -76.61188176325474,
              8.504982096574976,
              0.0
            ],
            [
              -76.61186577593762,
              8.505041577395174,
              0.0
            ],
            [
              -76.61189152524692,
              8.505141307919493,
              0.0
            ],
            [
              -76.61187520555315,
              8.505204772462035,
              0.0
            ],
            [
              -76.61189877824454,
              8.50527005029168,
              0.0
            ],
            [
              -76.61195869407736,
              8.505349682565427,
              0.0
            ],
            [
              -76.61193177965316,
              8.505465883713764,
              0.0
            ],
            [
              -76.6119787444745,
              8.505581747221415,
              0.0
            ],
            [
              -76.61196949631864,
              8.505624415204467,
              0.0
            ],
            [
              -76.61202135695831,
              8.505694355468767,
              0.0
            ],
            [
              -76.61206850234103,
              8.505764295720292,
              0.0
            ],
            [
              -76.61211093336519,
              8.505880863666253,
              0.0
            ],
            [
              -76.61234194592025,
              8.506011419083968,
              0.0
            ],
            [
              -76.61239380566165,
              8.506146636957839,
              0.0
            ],
            [
              -76.61231089475416,
              8.50619228823839,
              0.0
            ],
            [
              -76.6123020625183,
              8.506258515635194,
              0.0
            ],
            [
              -76.61227594220477,
              8.506454374316558,
              0.0
            ],
            [
              -76.61233251720307,
              8.506477687688921,
              0.0
            ],
            [
              -76.6123796625858,
              8.506538302805732,
              0.0
            ],
            [
              -76.61241737925133,
              8.506580267043454,
              0.0
            ],
            [
              -76.61245102205704,
              8.506647452992022,
              0.0
            ],
            [
              -76.61244095194272,
              8.506748123948249,
              0.0
            ],
            [
              -76.61250224040128,
              8.50690199241694,
              0.0
            ],
            [
              -76.61262528444234,
              8.507001797973674,
              0.0
            ],
            [
              -76.61262037874262,
              8.50707483950146,
              0.0
            ],
            [
              -76.61261539039783,
              8.507149114158224,
              0.0
            ],
            [
              -76.61252650210042,
              8.507230520238721,
              0.0
            ],
            [
              -76.61251850439947,
              8.507330756598957,
              0.0
            ],
            [
              -76.6125117032545,
              8.507415993554742,
              0.0
            ],
            [
              -76.6125069556582,
              8.507475501538412,
              0.0
            ],
            [
              -76.61262010475645,
              8.507652683015714,
              0.0
            ],
            [
              -76.61253291517325,
              8.507692781427858,
              0.0
            ],
            [
              -76.61252471445303,
              8.50780409461216,
              0.0
            ],
            [
              -76.61252109873398,
              8.507853177699698,
              0.0
            ],
            [
              -76.61246452463405,
              8.507834527779682,
              0.0
            ],
            [
              -76.61239852091856,
              8.507783237829559,
              0.0
            ],
            [
              -76.61229008617893,
              8.50772728627963,
              0.0
            ],
            [
              -76.61224765515482,
              8.507680659685589,
              0.0
            ],
            [
              -76.61220050977205,
              8.507592068075242,
              0.0
            ],
            [
              -76.61215336438934,
              8.507526790641332,
              0.0
            ],
            [
              -76.6120449296497,
              8.507480164022887,
              0.0
            ],
            [
              -76.61196478196001,
              8.507466176569293,
              0.0
            ],
            [
              -76.61192235093591,
              8.507386910769027,
              0.0
            ],
            [
              -76.61186577593762,
              8.507358934966167,
              0.0
            ],
            [
              -76.61176677081356,
              8.507270344169823,
              0.0
            ],
            [
              -76.6116206194084,
              8.5072283800077,
              0.0
            ],
            [
              -76.61153104300152,
              8.50713512580413,
              0.0
            ],
            [
              -76.6114556105688,
              8.507065185802816,
              0.0
            ],
            [
              -76.61141317954464,
              8.506985920808045,
              0.0
            ],
            [
              -76.61146975364461,
              8.506948619105707,
              0.0
            ],
            [
              -76.61150747031013,
              8.506850702341952,
              0.0
            ],
            [
              -76.61150275595152,
              8.50670149723508,
              0.0
            ],
            [
              -76.61146032492744,
              8.506650207133243,
              0.0
            ],
            [
              -76.61138960685334,
              8.50661290539821,
              0.0
            ],
            [
              -76.61132360313778,
              8.506561616172988,
              0.0
            ],
            [
              -76.61125759942232,
              8.506473025192244,
              0.0
            ],
            [
              -76.61121516839815,
              8.506365783311013,
              0.0
            ],
            [
              -76.6111868813482,
              8.506272529785868,
              0.0
            ],
            [
              -76.61119159570683,
              8.50617927623802,
              0.0
            ],
            [
              -76.61114445032406,
              8.506062708382858,
              0.0
            ],
            [
              -76.61109258968435,
              8.506002093190796,
              0.0
            ],
            [
              -76.61096058225341,
              8.505922827975992,
              0.0
            ],
            [
              -76.61089457853785,
              8.505894851177732,
              0.0
            ],
            [
              -76.61085214751377,
              8.505838899351978,
              0.0
            ],
            [
              -76.61086629148792,
              8.505689692962555,
              0.0
            ],
            [
              -76.61085214751377,
              8.505601101780181,
              0.0
            ],
            [
              -76.6108615771293,
              8.505465883713764,
              0.0
            ],
            [
              -76.61087100584653,
              8.505367966571026,
              0.0
            ],
            [
              -76.61088043546206,
              8.505256061868913,
              0.0
            ],
            [
              -76.61084271879653,
              8.505172133098892,
              0.0
            ],
            [
              -76.61082386046377,
              8.50507887928314,
              0.0
            ],
            [
              -76.61078614379822,
              8.504952986062937,
              0.0
            ],
            [
              -76.61078614379822,
              8.504836418723086,
              0.0
            ],
            [
              -76.61075785674828,
              8.50469653698002,
              0.0
            ],
            [
              -76.6107625711069,
              8.504631259052726,
              0.0
            ],
            [
              -76.6107814294396,
              8.504318857706744,
              0.0
            ],
            [
              -76.61075314238965,
              8.504206952698349,
              0.0
            ],
            [
              -76.61077671508104,
              8.504109035233826,
              0.0
            ],
            [
              -76.6107908590552,
              8.503950503116126,
              0.0
            ],
            [
              -76.61082386046377,
              8.50382460952519,
              0.0
            ],
            [
              -76.61085214751377,
              8.503731355381484,
              0.0
            ],
            [
              -76.61088514982062,
              8.503610124250118,
              0.0
            ],
            [
              -76.61092758084477,
              8.503488893968768,
              0.0
            ],
            [
              -76.61094643917755,
              8.503311710565853,
              0.0
            ],
            [
              -76.6109322952034,
              8.503204467799788,
              0.0
            ],
            [
              -76.61097472622755,
              8.502957342625777,
              0.0
            ],
            [
              -76.61097001186894,
              8.502840774678914,
              0.0
            ],
            [
              -76.61096058225341,
              8.502733531781066,
              0.0
            ],
            [
              -76.61088986417923,
              8.502635614828547,
              0.0
            ],
            [
              -76.61082386046377,
              8.50255634802892,
              0.0
            ]
          ]
        ]
      }
    }
  ]
}
