{
  "type": "FeatureCollection",
  "features": [
    {
      "id": "21",
      "type": "Feature",
      "properties": {
        "FID_Flujo": -1,
        "Nombre": "San Rafael",
        "Area": 3.50482000995,
        "Name": null,
        "Shape_Leng": 0.0,
        "Shape_Area": 0.0,
        "FID_Domos": 5,
        "Shape_Le_1": 1472.44966471,
        "Shape_Ar_1": 36039.2597054,
        "Nombre_1": null
      },
      "geometry": {
        "type": "MultiPolygon",
        "coordinates": [
          [
            [
              [
                -76.62999546720387,
                8.3755715080083,
                0.0
              ],
              [
                -76.6299950018766,
                8.375572802005447,
                0.0
              ],
              [
                -76.63081274995783,
                8.375344220359066,
                0.0
              ],
              [
                -76.63085295405833,
                8.375503088790117,
                0.0
              ],
              [
                -76.63087560867152,
                8.375702004402491,
                0.0
              ],
              [
                -76.63085295405833,
                8.37584488703473,
                0.0
              ],
              [
                -76.63079065409674,
                8.375948547142476,
                0.0
              ],
              [
                -76.63070569952204,
                8.376136254714945,
                0.0
              ],
              [
                -76.63064056717234,
                8.376399607554177,
                0.0
              ],
              [
                -76.63060941719156,
                8.376497664057538,
                0.0
              ],
              [
                -76.63050747188153,
                8.37656770414805,
                0.0
              ],
              [
                -76.63045083489952,
                8.376637744226015,
                0.0
              ],
              [
                -76.63036871181457,
                8.376688173536438,
                0.0
              ],
              [
                -76.63030074797511,
                8.376732999387219,
                0.0
              ],
              [
                -76.63031773960871,
                8.37680023815359,
                0.0
              ],
              [
                -76.6302752618722,
                8.376819848902821,
                0.0
              ],
              [
                -76.63021013042083,
                8.376889889824112,
                0.0
              ],
              [
                -76.63021579340035,
                8.376948723832761,
                0.0
              ],
              [
                -76.63023844801353,
                8.376999152214106,
                0.0
              ],
              [
                -76.6301676526843,
                8.37704397802906,
                0.0
              ],
              [
                -76.63012234345797,
                8.37708600255907,
                0.0
              ],
              [
                -76.630094024967,
                8.377172851995935,
                0.0
              ],
              [
                -76.63006004349637,
                8.377203669619394,
                0.0
              ],
              [
                -76.63002606112754,
                8.37721767779088,
                0.0
              ],
              [
                -76.63000057502461,
                8.377349353866775,
                0.0
              ],
              [
                -76.62996659355406,
                8.377422195970011,
                0.0
              ],
              [
                -76.62992128432772,
                8.377472624290048,
                0.0
              ],
              [
                -76.62987597510143,
                8.377528656934047,
                0.0
              ],
              [
                -76.629881638081,
                8.377595895562974,
                0.0
              ],
              [
                -76.62983632885472,
                8.377646323860498,
                0.0
              ],
              [
                -76.62977969277098,
                8.377707959918677,
                0.0
              ],
              [
                -76.62969473819622,
                8.37774438004972,
                0.0
              ],
              [
                -76.62964093360233,
                8.377789205778758,
                0.0
              ],
              [
                -76.62958712900836,
                8.377842436214172,
                0.0
              ],
              [
                -76.62954181978208,
                8.377954500498921,
                0.0
              ],
              [
                -76.62944836894138,
                8.37805816004457,
                0.0
              ],
              [
                -76.62941438747077,
                8.378116993876555,
                0.0
              ],
              [
                -76.62936907824448,
                8.378209446515253,
                0.0
              ],
              [
                -76.62929261903741,
                8.378234661513838,
                0.0
              ],
              [
                -76.62923315056557,
                8.37832431196499,
                0.0
              ],
              [
                -76.62920483207452,
                8.378391550456406,
                0.0
              ],
              [
                -76.6291227089896,
                8.378430773570933,
                0.0
              ],
              [
                -76.62904217232943,
                8.378494649987239,
                0.0
              ],
              [
                -76.62897149018798,
                8.378526924130497,
                0.0
              ],
              [
                -76.62895880328118,
                8.378593265860925,
                0.0
              ],
              [
                -76.62897692679205,
                8.378664987046195,
                0.0
              ],
              [
                -76.62897511489011,
                8.378772568354888,
                0.0
              ],
              [
                -76.62894611727275,
                8.378858633558199,
                0.0
              ],
              [
                -76.62892436816139,
                8.378930354694543,
                0.0
              ],
              [
                -76.62885731072205,
                8.378978766298497,
                0.0
              ],
              [
                -76.62883012500663,
                8.379041521940902,
                0.0
              ],
              [
                -76.62878119107818,
                8.379084554070802,
                0.0
              ],
              [
                -76.62871232173688,
                8.379134759105073,
                0.0
              ],
              [
                -76.62866157500817,
                8.379152689155433,
                0.0
              ],
              [
                -76.62863982679518,
                8.379140137675888,
                0.0
              ],
              [
                -76.6286470761995,
                8.37908993353108,
                0.0
              ],
              [
                -76.62863076459057,
                8.379039728491025,
                0.0
              ],
              [
                -76.6285927047686,
                8.379016419862886,
                0.0
              ],
              [
                -76.62856551995148,
                8.3789931103447,
                0.0
              ],
              [
                -76.62851839792495,
                8.378973386836739,
                0.0
              ],
              [
                -76.62846765209453,
                8.37896621481334,
                0.0
              ],
              [
                -76.62842415477013,
                8.378964422251824,
                0.0
              ],
              [
                -76.62839334435252,
                8.378955456778055,
                0.0
              ],
              [
                -76.62836072203298,
                8.378912424633874,
                0.0
              ],
              [
                -76.62834259852218,
                8.378876563621347,
                0.0
              ],
              [
                -76.62832266221106,
                8.378833531468437,
                0.0
              ],
              [
                -76.6283081634024,
                8.37878511984629,
                0.0
              ],
              [
                -76.62827191638065,
                8.378716984697219,
                0.0
              ],
              [
                -76.62834803512625,
                8.378634505477374,
                0.0
              ],
              [
                -76.62840784405957,
                8.37860940337315,
                0.0
              ],
              [
                -76.62846946399647,
                8.378548440224534,
                0.0
              ],
              [
                -76.62850389911625,
                8.378627333447787,
                0.0
              ],
              [
                -76.62855464584499,
                8.37862195486982,
                0.0
              ],
              [
                -76.62859451756883,
                8.378571749769424,
                0.0
              ],
              [
                -76.62858726816452,
                8.378494649987239,
                0.0
              ],
              [
                -76.62863620209299,
                8.378437272837266,
                0.0
              ],
              [
                -76.62865070090169,
                8.378369137627267,
                0.0
              ],
              [
                -76.62865070090169,
                8.378338656924035,
                0.0
              ],
              [
                -76.62870144763038,
                8.378288451787023,
                0.0
              ],
              [
                -76.62872319584345,
                8.378202386457561,
                0.0
              ],
              [
                -76.6287376946521,
                8.378159354230078,
                0.0
              ],
              [
                -76.62881562619796,
                8.378130666075776,
                0.0
              ],
              [
                -76.62883012500663,
                8.37808046091192,
                0.0
              ],
              [
                -76.6288935577438,
                8.378037428670888,
                0.0
              ],
              [
                -76.62891893155732,
                8.377967499936041,
                0.0
              ],
              [
                -76.62899323840098,
                8.377920881661286,
                0.0
              ],
              [
                -76.62907841935117,
                8.377863504426626,
                0.0
              ],
              [
                -76.6291219166755,
                8.37786888390379,
                0.0
              ],
              [
                -76.62915997649748,
                8.377770266957771,
                0.0
              ],
              [
                -76.6291563517953,
                8.377684201513677,
                0.0
              ],
              [
                -76.62916360119966,
                8.377592757458407,
                0.0
              ],
              [
                -76.62921615983026,
                8.37752282953234,
                0.0
              ],
              [
                -76.62929409137615,
                8.377494140442334,
                0.0
              ],
              [
                -76.62938833453092,
                8.377461866213457,
                0.0
              ],
              [
                -76.62943908125963,
                8.377409868394617,
                0.0
              ],
              [
                -76.62945358006831,
                8.377359664026455,
                0.0
              ],
              [
                -76.62945176726808,
                8.37733276838223,
                0.0
              ],
              [
                -76.62950976340115,
                8.377322010301713,
                0.0
              ],
              [
                -76.62952788691203,
                8.37728256311541,
                0.0
              ],
              [
                -76.62953694911657,
                8.377219807189261,
                0.0
              ],
              [
                -76.62957863274238,
                8.377146293167737,
                0.0
              ],
              [
                -76.62963119137302,
                8.37707098567331,
                0.0
              ],
              [
                -76.62970368631478,
                8.376954438374197,
                0.0
              ],
              [
                -76.62977074375412,
                8.376846856562684,
                0.0
              ],
              [
                -76.62980880357604,
                8.37673748214971,
                0.0
              ],
              [
                -76.62981061637635,
                8.376690862838796,
                0.0
              ],
              [
                -76.62976893185218,
                8.376642450950087,
                0.0
              ],
              [
                -76.62971274851934,
                8.376590453021734,
                0.0
              ],
              [
                -76.62962575476895,
                8.376529490445476,
                0.0
              ],
              [
                -76.62956413393368,
                8.376482871109646,
                0.0
              ],
              [
                -76.62951520000522,
                8.37645597540475,
                0.0
              ],
              [
                -76.62945539197025,
                8.376343014846066,
                0.0
              ],
              [
                -76.62941552024634,
                8.376287430841296,
                0.0
              ],
              [
                -76.62944995536613,
                8.376188813494446,
                0.0
              ],
              [
                -76.62945358006831,
                8.376145781044197,
                0.0
              ],
              [
                -76.62954601042281,
                8.376079438007727,
                0.0
              ],
              [
                -76.62964025357765,
                8.376005923770748,
                0.0
              ],
              [
                -76.6296583770885,
                8.375943167638761,
                0.0
              ],
              [
                -76.62967468869742,
                8.375810483262853,
                0.0
              ],
              [
                -76.62969281220829,
                8.375710073218618,
                0.0
              ],
              [
                -76.6297236226259,
                8.375613249191128,
                0.0
              ],
              [
                -76.62977799315844,
                8.375579181340354,
                0.0
              ],
              [
                -76.6298939854246,
                8.375579181340354,
                0.0
              ],
              [
                -76.62999366518343,
                8.375572009254446,
                0.0
              ],
              [
                -76.62999546720387,
                8.3755715080083,
                0.0
              ]
            ]
          ],
          [
            [
              [
                -76.63081274995783,
                8.375344220359066,
                0.0
              ],
              [
                -76.62999546720387,
                8.3755715080083,
                0.0
              ],
              [
                -76.6300543796185,
                8.375407834216617,
                0.0
              ],
              [
                -76.63005594178883,
                8.37540766446829,
                0.0
              ],
              [
                -76.63005660833875,
                8.375404462357153,
                0.0
              ],
              [
                -76.63012708835933,
                8.375338607998485,
                0.0
              ],
              [
                -76.63024455476084,
                8.375222394344847,
                0.0
              ],
              [
                -76.63029937265442,
                8.375129422863719,
                0.0
              ],
              [
                -76.63042467056857,
                8.37505582046241,
                0.0
              ],
              [
                -76.63058129183833,
                8.375005461150574,
                0.0
              ],
              [
                -76.63075749188977,
                8.375040325358643,
                0.0
              ],
              [
                -76.63081230978334,
                8.37512167575771,
                0.0
              ],
              [
                -76.6307261676358,
                8.375144917963997,
                0.0
              ],
              [
                -76.63075357703171,
                8.375214646351967,
                0.0
              ],
              [
                -76.63081230978334,
                8.375342481993739,
                0.0
              ],
              [
                -76.63081274995783,
                8.375344220359066,
                0.0
              ]
            ]
          ]
        ]
      }
    }
  ]
}
