{
  "type": "FeatureCollection",
  "features": [
    {
      "id": "37",
      "type": "Feature",
      "properties": {
        "FID_Flujo": 27,
        "Nombre": "San Juancito",
        "Area": null,
        "Name": null,
        "Shape_Leng": null,
        "Shape_Area": null,
        "FID_Domos": null,
        "Shape_Le_1": null,
        "Shape_Ar_1": null,
        "Nombre_1": null
      },
      "geometry": {
        "type": "Polygon",
        "coordinates": [
          [
            [
              -76.51328060692812,
              8.728848164987797,
              0.0
            ],
            [
              -76.51307800415215,
              8.728564521101438,
              0.0
            ],
            [
              -76.51303748359696,
              8.728442959435856,
              0.0
            ],
            [
              -76.51284838767272,
              8.728145808697764,
              0.0
            ],
            [
              -76.51255123693461,
              8.727767616849288,
              0.0
            ],
            [
              -76.51238915471384,
              8.72749747981466,
              0.0
            ],
            [
              -76.51234863415866,
              8.72709227426272,
              0.0
            ],
            [
              -76.51241616841732,
              8.726741096117703,
              0.0
            ],
            [
              -76.51260526434152,
              8.726646548155582,
              0.0
            ],
            [
              -76.51296994933827,
              8.726916685190213,
              0.0
            ],
            [
              -76.51313203155904,
              8.726849150931557,
              0.0
            ],
            [
              -76.51313203155904,
              8.726552000193466,
              0.0
            ],
            [
              -76.51317255211427,
              8.726133287789796,
              0.0
            ],
            [
              -76.513186058966,
              8.725863150755167,
              0.0
            ],
            [
              -76.51315904526254,
              8.725633534275733,
              0.0
            ],
            [
              -76.51305099044868,
              8.72533638353764,
              0.0
            ],
            [
              -76.51283488082099,
              8.724985205392628,
              0.0
            ],
            [
              -76.51275383971058,
              8.72480961632012,
              0.0
            ],
            [
              -76.51269981230364,
              8.724566492988957,
              0.0
            ],
            [
              -76.51263227804502,
              8.724363890212985,
              0.0
            ],
            [
              -76.5127133191554,
              8.724039725771432,
              0.0
            ],
            [
              -76.51284838767272,
              8.724066739474898,
              0.0
            ],
            [
              -76.51303748359696,
              8.724228821695672,
              0.0
            ],
            [
              -76.51317255211427,
              8.72451246558203,
              0.0
            ],
            [
              -76.51330762063158,
              8.724769095764925,
              0.0
            ],
            [
              -76.51340216859367,
              8.72501221909609,
              0.0
            ],
            [
              -76.51346970285236,
              8.725228328723793,
              0.0
            ],
            [
              -76.51357775766621,
              8.725444438351493,
              0.0
            ],
            [
              -76.51367230562833,
              8.725728082237852,
              0.0
            ],
            [
              -76.51391542895949,
              8.726241342603645,
              0.0
            ],
            [
              -76.51417205914235,
              8.726579013896929,
              0.0
            ],
            [
              -76.51432063451144,
              8.726781616672898,
              0.0
            ],
            [
              -76.51444219617701,
              8.727078767410987,
              0.0
            ],
            [
              -76.5144827167322,
              8.727470466111196,
              0.0
            ],
            [
              -76.51455025099087,
              8.72760553462851,
              0.0
            ],
            [
              -76.51461778524953,
              8.727727096294094,
              0.0
            ],
            [
              -76.51475285376684,
              8.727902685366603,
              0.0
            ],
            [
              -76.5148338948772,
              8.728105288142572,
              0.0
            ],
            [
              -76.51484740172896,
              8.728321397770273,
              0.0
            ],
            [
              -76.5148338948772,
              8.728659069063559,
              0.0
            ],
            [
              -76.51469882635989,
              8.729050767763766,
              0.0
            ],
            [
              -76.51440167562183,
              8.729158822577618,
              0.0
            ],
            [
              -76.5140504974768,
              8.729104795170693,
              0.0
            ],
            [
              -76.51380737414564,
              8.729050767763766,
              0.0
            ],
            [
              -76.51328060692812,
              8.728848164987797,
              0.0
            ]
          ]
        ]
      }
    }
  ]
}
